Name,Address,City,State/Territory,Country,Phone,Web Url
K K Paints,"K K Paints, 15/496/1 SURYA NAGAR 80 FEET ROAD NEAR MALLAMMA TEMPLE, Andhra Pradesh 515001",Anantapur,Andhra Pradesh,India,093966 87672,NA
Partha paints and hardware,"Partha paints and hardware, Rajamma Nagar, Bhavani Nagar, Anantapur, Andhra Pradesh 515005",Anantapur,Andhra Pradesh,India,NA,NA
Venkatasai Paintings Hardwares,"Venkatasai Paintings Hardwares, D No.12-5-402, Beside Ram Naresh Function Hall Law College Road, Housing Board Colony, Anantapur, Andhra Pradesh 515001",Anantapur,Andhra Pradesh,India,099852 79850,NA
Elahi Enterprises,"Elahi Enterprises, opp:kamma bhavan, Main Rd, Ram Nagar, Anantapur, Andhra Pradesh 515001",Anantapur,Andhra Pradesh,India,070137 52806,NA
Sudhir paints,"Sudhir paints, Ganesha Nagar, Pilligundla, Anantapur, Andhra Pradesh 515004",Anantapur,Andhra Pradesh,India,NA,NA
Hanuman Paints And Hardwares,"Hanuman Paints And Hardwares, Rangaswamy Nagar, Anantapur, Andhra Pradesh 515004",Anantapur,Andhra Pradesh,India,NA,NA
Asian Paints,"Asian Paints, Kamalanagar, Anantapur, Andhra Pradesh 515001",Anantapur,Andhra Pradesh,India,NA,https://www.asianpaints.com
Brundhavan traders,"Brundhavan traders, Tirupati Rd, Sangameswar Circle, Sai Nagar, Anantapur, Andhra Pradesh 515001",Anantapur,Andhra Pradesh,India,NA,NA
Asian Paints,"Asian Paints, Maruthi Nagar, Anantapur, Andhra Pradesh 515004",Anantapur,Andhra Pradesh,India,NA,https://www.asianpaints.com
S.K. Paints,"6, S.K. Paints, 71, Bellary - Uravakonda - Anantapur Rd, opp. Metallic Spring Factory, Ganesha Nagar, Pilligundla, Anantapur, Andhra Pradesh 515004",Anantapur,Andhra Pradesh,India,099666 81848,NA
Sri Rama Paints And Hardware Stores,"Sri Rama Paints And Hardware Stores, 1, 3rd Ln, Arundelpet, Guntur, Andhra Pradesh 522002",Guntur,Andhra Pradesh,India,094402 64770,https://sriramapaintsandhardwrestores.business.site
Sri Vara Siddhi Vinayaka Paints,"Sri Vara Siddhi Vinayaka Paints, D. No. 24-12-10, 1st Line, Main Road, Nellacheruvu, Guntur, Andhra Pradesh 522003",Guntur,Andhra Pradesh,India,099482 15955,NA
Sri Rama Paints,"Sri Rama Paints, Guntur, Andhra Pradesh 522003",Guntur,Andhra Pradesh,India,095022 22781,NA
MAHALAKSHMI PAINTS,"MAHALAKSHMI PAINTS, 522001 12-27, 114, Seelam Vari St, Kothapeta, Guntur, Andhra Pradesh 522001",Guntur,Andhra Pradesh,India,097032 00055,http://business.google.com
REVANTH PAINTS,"REVANTH PAINTS, BOMMALA CENTER, 3rd lane,MENAKA, Etukuru Rd, Gandhi Nagar, Guntur, Andhra Pradesh 522003",Guntur,Andhra Pradesh,India,NA,https://revanth-paints.business.site
Dorka Paints,"# 13, Dorka Paints, 2, Arundelpet, Guntur, Andhra Pradesh 522002",Guntur,Andhra Pradesh,India,NA,NA
Hanuman Paints & Sanitary Stores,"Hanuman Paints & Sanitary Stores, Door No 23-6-41, Patnam Bazar, Guntur, Andhra Pradesh 522003",Guntur,Andhra Pradesh,India,0863 222 2957,NA
Dharani Enterprises,"Dharani Enterprises, 8 Th Lane, Arundetpet, Guntur, Andhra Pradesh 522002",Guntur,Andhra Pradesh,India,0863 223 2167,NA
Dharani Agencies,"Dharani Agencies, # 18-6-47 , Stadium, Road, Guntur, Andhra Pradesh 522003",Guntur,Andhra Pradesh,India,NA,https://dharani-agencies.business.site
Sri Karthikeya Enterprises,"Sri Karthikeya Enterprises, State Highway 2, Nallapadu, Guntur, Andhra Pradesh 522005",Guntur,Andhra Pradesh,India,NA,NA
Basha Paints,"Basha Paints, No. 5-6-7, KT Rd, Opp. Durga Temple, Chittinagar, Fraserpeta, Vijayawada, Andhra Pradesh 520009",Vijayawada,Andhra Pradesh,India,NA,NA
Sri Bhagyalakshmi Agencies & Paints,"Sri Bhagyalakshmi Agencies & Paints, #22/84/1,devineni complex,main road, Gollapudi, Vijayawada, Andhra Pradesh 521225",Vijayawada,Andhra Pradesh,India,NA,NA
k.g.n.paints&generals,"k.g.n.paints&generals, #29-1-12, Sheshadri Sastry St, Venkatswara Rao Street, Governor Peta, Vijayawada, Andhra Pradesh 520002",Vijayawada,Andhra Pradesh,India,099896 64499,NA
Surya Paints,"Surya Paints, #11-33-16,Tatakulavaristreet,Samarangamchowk,, Vijayawada, Andhra Pradesh 520001",Vijayawada,Andhra Pradesh,India,098664 22055,NA
Sri Lakshmi Paints,"Sri Lakshmi Paints, Door No 55-3-25, 1st Floor, Cross, 2nd Road, Auto Nagar, Auto Nagar, Vijayawada, Andhra Pradesh 520007",Vijayawada,Andhra Pradesh,India,0866 254 4852,NA
Capital Colours - Paint Shop,"Capital Colours - Paint Shop, #43-78-12, Krishna Hotel Center, Ajit Singh Nagar, Vijayawada, Andhra Pradesh 520015",Vijayawada,Andhra Pradesh,India,089199 21654,https://getcapitalcolours.com
Maheshwari Paints,"Shop No. 28, Maheshwari Paints, 15-13, Dasu Vari St, Arundalpet, Governor Peta, Vijayawada, Andhra Pradesh 520002",Vijayawada,Andhra Pradesh,India,0866 669 9866,NA
Vaishnavi Agencies,"Vaishnavi Agencies, #43-107-167,Shop No : 2, Kanaka Durga Nagar, Andhra Prabha Colony,, near Venkaiah Swamy Temple, Vijayawada, Andhra Pradesh 520015",Vijayawada,Andhra Pradesh,India,094944 96739,NA
Sadhana Paints Agencies,"D.No. 28-7, Sadhana Paints Agencies, 1/4, Shaik Mohiddin St, Opposite Y. V. Rao Petrol Bunk, Arundalpet, Governor Peta, Vijayawada, Andhra Pradesh 520002",Vijayawada,Andhra Pradesh,India,0866 257 9075,NA
Shree Venkata Satya Paints Inds,"Shree Venkata Satya Paints Inds, 1-4-204, Bhavani Puram, Near Rtc Work Shop, Bhavani Puram, Vijayawada, Andhra Pradesh 520012",Vijayawada,Andhra Pradesh,India,0866 241 5219,NA
Sri Sapthagiri Paints & Hardwares,"Sri Sapthagiri Paints & Hardwares, D.No. 15/610, N.S.C. Bose Road, Subedarpet, Nellore, Andhra Pradesh 524001",Nellore,Andhra Pradesh,India,092999 99429,NA
HS Paints & Hardwares,"HS Paints & Hardwares, Mini Bypass Rd, beside SBI Bank JothyRao Puly Centre, Venkatramapuram, Ramamurthy Nagar, Nellore, Andhra Pradesh 524001",Nellore,Andhra Pradesh,India,088855 87855,NA
Vijayalakshmi Paints & Hardware,"Vijayalakshmi Paints & Hardware, Mini Bypass Road, Umma Reddy Gunta, Nellore, Andhra Pradesh 524004",Nellore,Andhra Pradesh,India,088016 06676,NA
Tirumala Paints & Hardwares,"Tirumala Paints & Hardwares, Podalakur Road, Nellore, Andhra Pradesh 524004",Nellore,Andhra Pradesh,India,094908 92252,NA
Sree Srinivasa paints and hardwares,"Sree Srinivasa paints and hardwares, Nawabpet Rd, Lakshmi Sai Nagar, Lakshmipuram, Nellore, Andhra Pradesh 524002",Nellore,Andhra Pradesh,India,094928 02134,NA
MALLI PAINTS & HARDWARE,"d.no, MALLI PAINTS & HARDWARE, 16-189A, Mini Bypass Rd, Venkatramapuram, Srinivasa Agraharam, Ramamurthy Nagar, Nellore, Andhra Pradesh 524002",Nellore,Andhra Pradesh,India,NA,NA
Sri Padmavathi Paints,"Sri Padmavathi Paints, Opp: Rtc Bus Stand, Ramesh Reddy Nagar, Nellore, Andhra Pradesh 524003",Nellore,Andhra Pradesh,India,097012 68850,NA
Sri Venkatasyamala h/w & paints,"Sri Venkatasyamala h/w & paints, Padmavathi Center, Podalakur Rd, opp. Ambethkar statue, Dargamitta, Nellore, Andhra Pradesh 524004",Nellore,Andhra Pradesh,India,NA,https://sri-venkatasyamala-hw-paints.business.site
KVS Paints and Infrastructures,"KVS Paints and Infrastructures, Dycus road center, nellore-4, near Andhra Bank, Mahathma Gandhi Nagar, Nellore, Andhra Pradesh 524004",Nellore,Andhra Pradesh,India,NA,https://kvs-paints-and-infrastructures.business.site
Balu Paints,"Balu Paints, Plot No. 219, Phase- 1, Auto Nagar, Nellore, Andhra Pradesh 524004",Nellore,Andhra Pradesh,India,098485 69474,NA
Maa Enterprise,"Maa Enterprise, Nalapara, Sarusajai, Guwahati, Assam 781040",Dispur,Assam,India,NA,NA
D.A ENTERPRISE,"D.A ENTERPRISE, Sonapur - Rewa Rd, KUSHAL NAGAR, Rewa N.C., Assam 782402",Dispur,Assam,India,NA,NA
Usha trade agencies,"Usha trade agencies, near SFS SCHOOL, Kalitakuchi, Satgaon, Guwahati, Assam 781171",Dispur,Assam,India,NA,NA
Balaji Enterprise,"Balaji Enterprise, NH 37, Lokhra Chariali, Near Central Bank Of India, Lokhra, Guwahati, Assam 781034",Dispur,Assam,India,073992 38325,NA
city steel,"city steel, Bhetapara hatigaon road central bank of india, guwahauti, Assam 781028",Dispur,Assam,India,094355 47362,NA
H.M. Refinish,"H.M. Refinish, GS Rd, Ganeshguri, Guwahati, Assam 781005",Dispur,Assam,India,NA,NA
Shyam Hardware Stores,"Shyam Hardware Stores, Ganeshguri Subji Bazaar Road, Christian Basti, Guwahati, Assam 781005",Dispur,Assam,India,NA,NA
Vikas Hardware Store,"Vikas Hardware Store, Dr. R.P. Road, Dispur, Ganeshguri, Guwahati, Assam 781006",Dispur,Assam,India,NA,NA
Rajdhani Paint House,"Rajdhani Paint House, Hatigaon Main Rd, Near Namghar, Hatigaon, Guwahati, Assam 781036",Dispur,Assam,India,098541 45005,NA
SHREE SAI TRADERS,"SHREE SAI TRADERS, high school, near, Hatigaon, Guwahati, Assam 781038",Dispur,Assam,India,NA,NA
Sandeep Commercial,"Sandeep Commercial, Fayez Ahmed Rd, Kumarpara, Bharalumukh, Guwahati, Assam 781009",Guwahati,Assam,India,NA,NA
Pratayush Enterprise,"Pratayush Enterprise, MB Rd, Bishnupur, Fatasil, Fatasil Ambari, Guwahati, Assam 781001",Guwahati,Assam,India,NA,NA
SANTOSH CHANDRA DAS AND SON'S,"SANTOSH CHANDRA DAS AND SON'S, SRCB Rd, Lakhtokia, Fancy Bazaar, Guwahati, Assam 781001",Guwahati,Assam,India,098545 54071,http://mowjee.com
Sarala Store,"Sarala Store, GS Rd, Kejriwal Bhawan Market, Manipuri Rajbari, Ulubari, Guwahati, Assam 781807",Guwahati,Assam,India,0361 273 8307,NA
Industrial traders,"Industrial traders, MB MARKET AT ROAD, near RLY GATE NO.6, Guwahati, Assam 781009",Guwahati,Assam,India,094351 03866,NA
Shubham Trading,"Shubham Trading, Dr BK Kakati Rd, Sarabbhati, Ulubari, Guwahati, Assam 781008",Guwahati,Assam,India,097060 87646,NA
Pratayush Enterprises,"Pratayush Enterprises, MB Rd, Bishnupur, Fatasil, Fatasil Ambari, Guwahati, Assam 781001",Guwahati,Assam,India,NA,NA
Jai Kolor Chrome,"Jai Kolor Chrome, Surya Tower,Prag Channel Building, Dr. Bhubaneswar Barua Road, South Sarania, Manipuri Rajbari, Ulubari, Guwahati, Assam 781007",Guwahati,Assam,India,095089 12190,NA
Om Hardware Mart,"Om Hardware Mart, Kedar Rd, Machkhowa, Guwahati, Assam 781001",Guwahati,Assam,India,NA,NA
Shanti Bhandar,"Shanti Bhandar, UN Bezbaruah Road, Silphukuri, Guwahati, Assam 781003",Guwahati,Assam,India,0361 266 7530,NA
Shivajeet Paints & Hardwere,"Shivajeet Paints & Hardwere, Ashok Nagar Ramlakhan Path, Rd number 8, Kankarbagh, Patna, Bihar 800020",Patna,Bihar,India,NA,NA
ANJAY SALES,"ANJAY SALES, Congress Maidan Rd, Ghrounda, Patna, Bihar 800003",Patna,Bihar,India,NA,NA
shri ram paint house,"shri ram paint house, near sbi bank, New Etwarpur, Sipara, Patna, Bihar 800020",Patna,Bihar,India,NA,NA
Shanti Colour Zone,"Shanti Colour Zone, 90, Vijay Nagar Rd, Hanuman Nagar, Patna, Bihar 800026",Patna,Bihar,India,NA,NA
Kumar Hardware,"Kumar Hardware, Jawhar Nagar Opposit The Hotal Buddha regencyNawada, Bihar, 805110",Patna,Bihar,India,NA,NA
M/S Patna Paint House,"M/S Patna Paint House, New Bye Pass Road, F Infront Of Vijay Petrol Pump, Anisabad, Patna, Bihar 800002",Patna,Bihar,India,095761 97122,NA
Sainath Paints & Hardware,"Sainath Paints & Hardware, Parvathi Path, New Colony, Mahatma Gandhi Nagar, Chitragupta Nagar, Patna, Bihar 800020",Patna,Bihar,India,NA,https://sainath-paints-hardware.business.site
Ganesh Paint House,"Ganesh Paint House, Balapur, Patna, Bihar 800010",Patna,Bihar,India,NA,NA
Ranjit Nerolac Paint,"Ranjit Nerolac Paint, Jakariyapur Jhali Rd, Pahari, Patna, Bihar 800027",Patna,Bihar,India,NA,NA
Asian Paints,"Asian Paints, rajivnagar near railway crossing opposit of devanti sweets, Bihar 800024",Patna,Bihar,India,NA,https://website-2924626116339535095189-paintstore.business.site
Shivam Paints,"Shivam Paints, Kacchi Pakki, Atardah Road, Muzaffarpur, Bihar 842002",Muzaffarpur,Bihar,India,072095 09115,NA
Dharmendra Motor,"Dharmendra Motor, Bairiya, near Bus Stand, Muzaffarpur, Bihar 842001",Muzaffarpur,Bihar,India,099310 73066,NA
Punjab Brothers,"Punjab Brothers, Near Chandralok Chowk, Satsang Vihar, Muzaffarpur, Bihar 842001",Muzaffarpur,Bihar,India,094312 48360,NA
SATYAM PAINTS AND HARDWARE,"SATYAM PAINTS AND HARDWARE, Hathi chowk, near asg eye hospital, Muzaffarpur, Bihar 842002",Muzaffarpur,Bihar,India,NA,NA
Paint and decorative (KAUSHAL HARDWARE),"Paint and decorative (KAUSHAL HARDWARE), Juma masjid chowk Naka no. 4 road, near dudhnath shiv mandir, Bihar 842001",Muzaffarpur,Bihar,India,NA,NA
Color Centre,"Color Centre, Maripur, Power House Chowk, Muzaffarpur, Bihar 842001",Muzaffarpur,Bihar,India,099393 08676,NA
Rainbow World,"Rainbow World, Vrindawn Market, Bela Rd, near Sai Mandir, Mithanpura, Muzaffarpur, Bihar 842002",Muzaffarpur,Bihar,India,NA,https://rainbowworld.business.site
Punjab H/W & Paints,"Punjab H/W & Paints, Old Motihari Road, Bairia, Muzaffarpur, Bihar 842001",Muzaffarpur,Bihar,India,098358 21772,NA
M/s Rabi Enterprises,"M/s Rabi Enterprises, Jail Rd, Tinkothia, Chandwara, Muzaffarpur, Bihar 842001",Muzaffarpur,Bihar,India,094310 13024,NA
Pashupatinath Paints,"Daudpur Kothi, Muzaffarpur, Bihar 842003",Muzaffarpur,Bihar,India,NA,NA
Samarthya Enterprises Authorised Dealer of Asian Paints and Tata Pravesh doors and windows,"Samarthya Enterprises Authorised Dealer of Asian Paints and Tata Pravesh doors and windows, Chhapra - Gopalganj Rd, Near power House, Mirganj, Bihar 841438",Gopālganj,Bihar,India,NA,https://samarthya-enterprises-authorised-dealer-of-asian.business.site
Naveen Bhandar,"Naveen Bhandar, Chuna Gali, Haziapur, Gopalganj, Bihar 841428",Gopālganj,Bihar,India,NA,NA
Keshav Hardware,"Keshav Hardware, Ramasheesh Complex, Arar More, N.H -28 Near Flyover, Gopalganj, Bihar 841428",Gopālganj,Bihar,India,088738 63371,NA
shrivastv hardwear and paints,"shrivastv hardwear and paints, Kateya - Semra Rd, Semariya, Bihar 841441",Gopālganj,Bihar,India,NA,NA
Colour Tech,"Colour Tech, Banjari, Bihar 841428",Gopālganj,Bihar,India,NA,NA
A1 TRADERS,"A1 TRADERS, Bedu Tola, Bihar 841440",Gopālganj,Bihar,India,NA,NA
Samdarshi Traders,"Samdarshi Traders, Ram Nath Sharma Marg, Thana Road, Gopalganj, Bihar 841428",Gopālganj,Bihar,India,097082 81884,NA
Maa parvati enterprises,"Maa parvati enterprises, Laljee market, Station Rd, Sasamusa, Bihar 841505",Gopālganj,Bihar,India,NA,NA
Danish Traders,"Danish Traders, Zilla Parishad Market, Shop No.1 Ambedkar Chowk, Thawe - Bheria Rd, Gopalganj, Bihar 841428",Gopālganj,Bihar,India,082940 75786,NA
Panchdewari hardware and paint store,"Panchdewari hardware and paint store, Bus Stop, Mishrauli - Bhengari Rd, Panchdewri, Bihar 841441",Gopālganj,Bihar,India,NA,NA
Shree Hardware & Paints,"Shree Hardware & Paints, Main Road, New Purena, Amlihdih, New Rajendra Nagar, Raipur, Chhattisgarh 492001",Raipur,Chhattisgarh,India,093024 66225,NA
TiarOne Sales,"TiarOne Sales, D-11 Bhanpuri Machinery Market, near Vyas Talab, Bhanpuri, Raipur, Chhattisgarh 493221",Raipur,Chhattisgarh,India,NA,http://www.tiarone.com
Amit Hardware And Paints,"11, Amit Hardware And Paints, Hanuman Mandir, Telibandha Main Rd, Telibandha, Raipur, Chhattisgarh 492001",Raipur,Chhattisgarh,India,093006 33032,NA
Kamal Hardware,"Kamal Hardware, Ring Rd Chowk, Chhattisgarh Nagar, Tikrapara, Raipur, Chhattisgarh 492001",Raipur,Chhattisgarh,India,090396 26362,NA
shri Ramdeo colours,"shri Ramdeo colours, usha pride, Mowa, Raipur, Chhattisgarh 492001",Raipur,Chhattisgarh,India,NA,NA
Indra traders,"Indra traders, Mandi Rd, Jagriti Nagar, Devendra Nagar, Raipur, Chhattisgarh 492009",Raipur,Chhattisgarh,India,NA,NA
Upasana Enterprises,"Upasana Enterprises, Radhaswami Nagar, Bhatagaon, Raipur, Chhattisgarh 492013",Raipur,Chhattisgarh,India,093031 62555,NA
Shivansh traders,"Shivansh traders, front of, Shivansh tower jal grih marg, road, Dhebar City, Bhatagaon, Raipur, Chhattisgarh 492001",Raipur,Chhattisgarh,India,NA,NA
Maa Bhawani Hardware,"Maa Bhawani Hardware, Shop No. 04, Ammol Vihar Complex Shri Nagar Road, Colony, Anmol Vihar, Moti Nagar, Gudhiyari, Chhattisgarh 492009",Raipur,Chhattisgarh,India,098279 34753,NA
Manish Steel And Hardware,"Manish Steel And Hardware, Pahadipara, Janta Colony Rd, Gudhiyari, Chhattisgarh 492001",Raipur,Chhattisgarh,India,093010 94432,NA
Shri krishna hardware store's,"Shri krishna hardware store's, Nandini Rd, Camp 2, Bhilai, Chhattisgarh 490011",Bhilai,Chhattisgarh,India,099934 30373,NA
G.C. INFRATECH,"G.C. INFRATECH, Nandini Rd, Durgpara, Camp 2, Bhilai, Chhattisgarh 490022",Bhilai,Chhattisgarh,India,NA,NA
Jai Bajrang Glass And Paints,"Jai Bajrang Glass And Paints, Akash Ganga, Supela, Bhilai, Chhattisgarh 490023",Bhilai,Chhattisgarh,India,NA,NA
Krishana Hardware Power House Bhilai,"Krishana Hardware Power House Bhilai, Shri Krishana Hardware Power House, Janjgiri, Bhilai, Chhattisgarh 490011",Bhilai,Chhattisgarh,India,099934 30373,NA
TEJAS ENTERPRISES,"TEJAS ENTERPRISES, Light Industrial Area, Bhilai, Chhattisgarh 490011",Bhilai,Chhattisgarh,India,NA,NA
Tejas enterprises,"Tejas enterprises, Nandini Rd, Near Acc chowk, Durgpara, Camp 2, Bhilai, Chhattisgarh 490001",Bhilai,Chhattisgarh,India,NA,NA
Shankar Glass centre,"Shankar Glass centre, Nandini Rd, power house, Camp 2, Chhattisgarh 490001",Bhilai,Chhattisgarh,India,NA,NA
ViKAS PLYWOOD,"ViKAS PLYWOOD, Dhamdha, Chhattisgarh 491331",Bhilai,Chhattisgarh,India,NA,NA
MAHAMAYA STEEL,"MAHAMAYA STEEL, Akaltara, Baloda Rd, Word 8, Buchihardi, Chhattisgarh 495559",Baloda,Chhattisgarh,India,NA,http://mahamayasteel.com
Gujarat Colour,"Gujarat Colour, Behind Danapith, M.G Road, Lokhand Bazaar, Khargate, Bhavnagar, Gujarat 364001",Bhavnagar,Gujarat,India,090336 56352,https://gujaratcolourbhavnagar.business.site
British Paints,"British Paints, Mahathma Gandhi Rd, near I.D.B.I Atm, Khargate, Vora Bazar, Bhavnagar, Gujarat 364001",Bhavnagar,Gujarat,India,093755 20052,http://www.britishpaints.in
Shree Shivshakti Paint Store,"Shree Shivshakti Paint Store, G-14, Kapisha Complex, Opp R.T.O. Office,, Nr Gadhechi Vadla,, Bhavnagar, Gujarat 364002",Bhavnagar,Gujarat,India,094289 91029,https://shree-shivshakti-paint-store.business.site
Darshan paints,"Darshan paints, Watch tower, 3, Pradhyumna Kanchanrai Desai Rd, Kaliyabid, Bhavnagar, Gujarat 364002",Bhavnagar,Gujarat,India,NA,NA
Satguru Color World,"Satguru Color World, Old Sindhunagar ,Shop No 5, beside Gurukrupa temple, Bhavnagar, Gujarat 364002",Bhavnagar,Gujarat,India,NA,NA
R R Paints Private Limited,"R R Paints Private Limited, Lokhand Bazar, Darbargadh, Bhavnagar, Gujarat 364001",Bhavnagar,Gujarat,India,0278 251 6884,NA
SHREE SAINATH PAINTS & TRADERS,"Plot no 31, SHREE SAINATH PAINTS & TRADERS, shivam building, Kaminiyanagar, Bhavnagar, Gujarat 364001",Bhavnagar,Gujarat,India,NA,NA
Coach paint shop,"Coach paint shop, 423B, Bhavnagar Para, Bhavnagar, Gujarat 364003",Bhavnagar,Gujarat,India,NA,NA
Shah Vrajlal Jamnadas,"Shah Vrajlal Jamnadas, Mahathma Gandhi Rd, near Maha Laxmi Guest House, Khargate, Kanbiwad, Bhavnagar, Gujarat 364001",Bhavnagar,Gujarat,India,095588 13051,NA
Patel Plylam,"Patel Plylam, Madhav Darsahan Complex, Jai Jhulelal Chowk, Gujarat 364001",Bhavnagar,Gujarat,India,098255 05121,NA
Manju Enterprise,"Manju Enterprise, OPP Dhaba WALL Chali Memco BUS stop, MencoNarod ROAD AHMEDABAD, Ahmedabad, Gujarat 382345",Ahmedabad,Gujarat,India,099256 98822,NA
Padmavati Temple Paints,"Padmavati Temple Paints, 1463, Taliya Ni Pol, Panditji Ni Pol, Sarangpur, Khadia, Ahmedabad, Gujarat 380001",Ahmedabad,Gujarat,India,NA,NA
Mahavir Paints,"Mahavir Paints, Ramkrishna Paramhans Marg, opp. Seonnagar Methodist Church, Ahbab Nagar, Maninagar East, Khokhra, Ahmedabad, Gujarat 380008",Ahmedabad,Gujarat,India,094267 59062,NA
Om Paint World,"Om Paint World, Gf/5, Pranav app, opp. Bhuminagar, b/h Sai baba Temple, Satadhar, Ahmedabad, Gujarat 380061",Ahmedabad,Gujarat,India,099258 12612,NA
Mangalam Hardware & Paint Mart,"Mangalam Hardware & Paint Mart, Shop No 1 & 2, Riddhi Siddhi Avenue, Gors Kuvo, Near cheharmata Temple, Maninagar East, Ahmedabad, Gujarat 380008",Ahmedabad,Gujarat,India,096629 64461,NA
Kena Enterprise,"Kena Enterprise, 27, New Cloth Market, Malia, Raipur, New Cloth Market, Ahmedabad, Gujarat 380002",Ahmedabad,Gujarat,India,079 2216 9328,NA
Divya Paints,"Divya Paints, Shukan Mall, 48, Opp.Cims Hospital, Science City Rd, Ahmedabad, Gujarat 380060",Ahmedabad,Gujarat,India,094290 03940,NA
Aksar Paints,"Aksar Paints, Phase 4, GIDC Vatwa, Ahmedabad, Gujarat 382445",Ahmedabad,Gujarat,India,NA,NA
Balaji Paint,"Balaji Paint, Sola Rd, Ghatlodia, C.P. Nagar-1, Parul Nagar Society, Ahmedabad, Gujarat 380061",Ahmedabad,Gujarat,India,079 2745 4414,NA
Aksar Paints,"Aksar Paints, Rabari Colony, Amraiwadi, Ahmedabad, Gujarat 380026",Ahmedabad,Gujarat,India,NA,NA
Joshi Paints,"Joshi Paints, Shop no-28,nilkanth park society, opposite Shani Dev temple, Palanpur Jakatnaka, Surat, Gujarat 395009",Surat,Gujarat,India,NA,NA
Ica Paint,"Ica Paint, City Centre, Sosyo Cir, Laxmi Nagar, Udhna, Surat, Gujarat 395007",Surat,Gujarat,India,NA,NA
Husain Enterprise,"Husain Enterprise, Kaskiwad Baghal Rd, Mahidharpura, Begampura, Surat, Gujarat 395003",Surat,Gujarat,India,099241 17252,NA
Shivani Enterprise,"Shivani Enterprise, Shop no-G/48,ascon plaza Behind bhulka Bhavan School, Anand Mahal Rd, Adajan, Surat, Gujarat 395009",Surat,Gujarat,India,NA,NA
Krishna Hardware,"Krishna Hardware, L-9, Bhavik Complex Ghod Dod Road,, near panjara pol,athwa lines., Surat, Gujarat 395001",Surat,Gujarat,India,098258 55483,NA
Yazdi Techno Sales & Services,"Yazdi Techno Sales & Services, Shop No. 202/5, near Aashapura ma temple, Vesu, Surat, Gujarat 395007",Surat,Gujarat,India,098251 25918,NA
DIPAK TRADERS : Furniture Polish,"DIPAK TRADERS : Furniture Polish, 9/467, Kotsafil Main Rd, near Bahucharaji Temple, Wadifaliya, Gopipura, Surat, Gujarat 395003",Surat,Gujarat,India,0261 241 2492,NA
National Paints,"National Paints, Shop No. G 9 Firdis Tower Rander Road, So, Gujarat 395005",Surat,Gujarat,India,098254 96262,https://national-paints.com
Shakti Sales,"Shakti Sales, 5, Harpati Vas, Near Vishal Society Udhana Magdalla Road, New Bhatar Rd, Surat, Gujarat 395017",Surat,Gujarat,India,NA,NA
Rohit Painter,"Rohit Painter, 173, Bamroli Rd, Vinayak Nagar, Vishnu Nagar, Udhna, Surat, Gujarat 394220",Surat,Gujarat,India,NA,NA
Jalaram Enterprises,"51, Jalaram Enterprises, Saiyed Vasna Rd, Near Raneshwar Mahadev Temple, Krishnadham Society, Saiyed Vasna, Vadodara, Gujarat 390015",Vadodara,Gujarat,India,098240 99187,NA
Gordhanbhai Jayantabhai Patel,"Gordhanbhai Jayantabhai Patel, Chittesthan Hanuman Lane,Raopura Main Rd, Near Chittekhan Hanuman Temple, Raopura, Mandvi, Vadodara, Gujarat 390001",Vadodara,Gujarat,India,098257 56322,https://gordhanbhai-jayantabhai-patel.business.site
Harikrupa Enterprises,"Harikrupa Enterprises, Rajlaxmi Complex A-, 22, Old Padra Rd, Sheetal Nagar, Akota, Vadodara, Gujarat 390007",Vadodara,Gujarat,India,0265 231 2307,NA
Jay Khodiyar Auto Paints,"Jay Khodiyar Auto Paints, Shop - 5 Plam exotica complex High Tension Road Subhanpura opp Desai eyes hospital, near Jain Temple, Vadodara, Gujarat 390023",Vadodara,Gujarat,India,096013 55398,NA
Navarang Paints,"Navarang Paints, S/12, Bahuchraji Nagar, Karelibaug, Ghanshyam Nagar, B/H Jalaram Temple, Bahuchraji Nagar, Vadodara, Gujarat 390018",Vadodara,Gujarat,India,099989 77821,NA
G J Patel | Painting Contractor in Vadoadra | Paint Dealer in Vadodara,"G J Patel | Painting Contractor in Vadoadra | Paint Dealer in Vadodara, Chittesthan Hanuman Lane, Raopure, Vadodara, Gujarat 390001",Vadodara,Gujarat,India,098257 56322,NA
Arihant Ceramic,"Arihant Ceramic, Shop No. 37-38 Opp.Mahesh Nagar Petrol Pump Nr.Baroda Life Line Hospital Dabhoi Waghodiya, Ring Rd, Vadodara, Gujarat 390019",Vadodara,Gujarat,India,078789 73846,NA
Narandas & Sons - Asian & Berger Paints Dealer in Vadodara & India,"Narandas & Sons - Asian & Berger Paints Dealer in Vadodara & India, Near, Narandas House, Gendi Gate Rd, Mandvi, Vadodara, Gujarat 390001",Vadodara,Gujarat,India,0265 243 9708,http://www.narandasandsons.com
Galaxy Color Co.,"Galaxy Color Co., Jetalpur Rd, Sampatrao Colony, Jetalpur, Vadodara, Gujarat 390020",Vadodara,Gujarat,India,NA,NA
Kaivalam Enterprise,"S/8, Kaivalam Enterprise, Vadsar Kalali Road, Puspak Society, Beside Petrol Pump, Vadsar, Kalali, Vadodara, Gujarat 390010",Vadodara,Gujarat,India,099242 96608,NA
Taj Paints,"Taj Paints, Gondal Road Opp Suryakant Hotel & melsi mata Temple, Rajkot, Gujarat 360002",Rajkot,Gujarat,India,NA,NA
Patel Hardware & Sanitary,"Patel Hardware & Sanitary, Kothariya Main Rd, opp. Mahakali Temple, Govind Nagar, Jangleshwar, Rajkot, Gujarat 360002",Rajkot,Gujarat,India,NA,NA
Nachiketa Hardware & Sanitaryware,"Shop No.4, Nachiketa Hardware & Sanitaryware, Badal Complex, Opp.Ghantakarna Temple, 150 Feet Raiya Ring Rd, Rajkot, Gujarat 360005",Rajkot,Gujarat,India,099240 17377,NA
Siddhpura Enterprise,"Siddhpura Enterprise, 12-LL, Royal Complex, Dhebarbhai Road, Nr. Bhutkhana Chowk, Rajkot, Gujarat 360002",Rajkot,Gujarat,India,0281 223 6872,NA
R R MARKETING,"R R MARKETING, 303-A, ""4 PLUS"" , SARDAR NAGAR MAIN ROAD,, NEAR ASTRON CHOWK,, Rajkot, Gujarat 360002",Rajkot,Gujarat,India,098795 11513,http://www.jotun.com
Ramdev enterprise,"Ramdev enterprise, Swati Park, Rajkot, Gujarat 360002",Rajkot,Gujarat,India,NA,NA
Indukumar Chunilal Gandhi,"Indukumar Chunilal Gandhi, Canal Rd, opposite Cloth Mill, Gundavadi, Rajkot, Gujarat 360001",Rajkot,Gujarat,India,0281 222 4180,NA
Johar Colors,"Johar Colors, Hanuman Madhi Chowk 2, Nirav Complex, Raiya Rd, Rajkot, Gujarat 360007",Rajkot,Gujarat,India,094277 44286,NA
P & C Colour,"P & C Colour, Sahakar Main Road, Hasan Vadi Society, Gopal Nagar, Bhakti Nagar, Rajkot, Gujarat 360001",Rajkot,Gujarat,India,094264 33621,NA
Patel Colour World,"10, Patel Colour World, Godown Rd, Manhar Plot Corner, Bhaktinagar Station Plot, Bhakti Nagar, Rajkot, Gujarat 360002",Rajkot,Gujarat,India,099241 95812,NA
Rama Drader,"Rama Drader, Shop No 1810, Dabua Pali Road, Nehru Colony,, Molarband School Rd, Sector 91, Faridabad, Haryana 121009",Faridabad,Haryana,India,NA,NA
Laxmi Paint Store,"Laxmi Paint Store, 33 Feet Road, Near 17 No. Chungi, NIT, Dabua Pali Rd, Dabua Colony, Sector 50, Faridabad, Haryana 121001",Faridabad,Haryana,India,088609 71617,NA
Om Paints Hardware & Sanitary,"Om Paints Hardware & Sanitary, Shop Number-1 , Palla Chowk , Sehatpur Road, Faridabad, Haryana 121003",Faridabad,Haryana,India,NA,https://ompaintshardwaresanitary3339.business.site
Krishna Enterprise H/W & paints,"Krishna Enterprise H/W & paints, Cheers. Krishn Sahay Sarpunch New Market, Basantpura Road Near Syria Nagar, Phese-2 Sehatpur, Faridabad, Haryana 121013",Faridabad,Haryana,India,098994 58485,NA
Aman Trading Company,"Aman Trading Company, Shop Number -12/6 Gurukul Industrial Area Near-Green Valley, Faridabad, Haryana 121003",Faridabad,Haryana,India,NA,https://www.amantrading.co.in
AMBE DECORATORS,"AMBE DECORATORS, SBI atm, Main, Chetan Market Rd, Chetan Market, Surya Colony, Sehatpur, Faridabad, Haryana 121003",Faridabad,Haryana,India,NA,https://ambedecorators.business.site
Bhanu Trading Company,"Bhanu Trading Company, Shop Number - 5D/26, Moongfali Chowk NIT, Faridabad, Haryana 121001",Faridabad,Haryana,India,092131 13086,NA
Bhim Denting,"Bhim Denting, Sector 20B, Haryana 121001",Faridabad,Haryana,India,NA,NA
Yash Sanitary & Hardware Paint Store,"Yash Sanitary & Hardware Paint Store, Shop No 2359, Sector 7A, 7-8 Dividing Road, Faridabad, Haryana 121004",Faridabad,Haryana,India,099711 79820,NA
Gaurav Paints & Hardware Store,"Gaurav Paints & Hardware Store, F-82/15, Mittal Colony, Block A, Pul Pehlad Pur, New Delhi, Haryana 110044",Faridabad,Haryana,India,NA,NA
Saini Paint and Hardware Store,"Saini Paint and Hardware Store, Near Kotla, Chownk, Sadhaura",Bilāspur,Haryana,India,NA,NA
Yamuna Hardware Store.,"Yamuna Hardware Store., near Shiv chownk, Bilaspur, Haryana 135102",Bilāspur,Haryana,India,NA,https://yamuna-hardware-store.business.site
R K Traders,"R K Traders, Bilaspur Rd, Malak Raipur, Haryana 135102",Bilāspur,Haryana,India,094666 62762,NA
Om Sai Ram Paints Hardware Store,"Om Sai Ram Paints Hardware Store, Bhawanipur-Kapal Mochan Rd, Bilaspur, Haryana 135102",Bilāspur,Haryana,India,NA,NA
Vasu Granite Centre,"Vasu Granite Centre, Tehsil, Vasu Granite Centre Near HDFC Bank, Opp. Sahni Carpets Barara Road, Bilaspur - Sadhaura Rd, Sadhaura, Haryana 133204",Bilāspur,Haryana,India,NA,https://vasu-granite-centre.business.site
Mahesh paints and Electric store,"Mahesh paints and Electric store, Railway Road, Ateli Mandi, Ateli, Haryana 123021",Ateli Mandi,Haryana,India,094164 79290,NA
Rosy Paints & Saintry Ateli,"Rosy Paints & Saintry Ateli, Ateli, Haryana 123021",Ateli Mandi,Haryana,India,NA,NA
Shree Ganesh Marbles,"Shree Ganesh Marbles, Loharu Rd, near Jogi Wala Mandir, Shiv Nagar Colony, Bhagganpuri, Bhiwani, Haryana 127021",Bhiwani,Haryana,India,098133 98879,NA
Pawan Paint & H/WStore,"Pawan Paint & H/WStore, near electricity office, Taiyan Pana, Naya Bazar, Krishna Colony, Bhiwani, Haryana 127021",Bhiwani,Haryana,India,NA,NA
Pawan Paints & H/W store,"Pawan Paints & H/W store, near electricity office, Taiyan Pana, Naya Bazar, Krishna Colony, Bhiwani, Haryana 127021",Bhiwani,Haryana,India,NA,NA
Star Hardware & Paints,"Star Hardware & Paints, Zakir Nagar, Mango, Jamshedpur, Jharkhand",Jamshedpur,Jharkhand,India,NA,NA
City sanitary and paint city,"City sanitary and paint city, Rd Number 18, near chepa pull, Jawahar Nagar, Mango, Jamshedpur, Jharkhand 831012",Jamshedpur,Jharkhand,India,NA,NA
Ayodhya Enterprises,"Ayodhya Enterprises, 77 Golmuri market, Jamshedpur, Jharkhand 831003",Jamshedpur,Jharkhand,India,094146 17852,http://ayodhyaenterprises.com
Shreeji Paints,"Shreeji Paints, Thakurbari Road, Sakchi, Jamshedpur, 831001",Jamshedpur,Jharkhand,India,0657 223 0575,NA
KIRAN ENTERPRISES,"KIRAN ENTERPRISES, Shop, Street Number 1, New Rani Kudar, Kadma, Jamshedpur, Jharkhand 831005",Jamshedpur,Jharkhand,India,091226 24456,NA
Kumar Enterprises,"Kumar Enterprises, Near Ram Mandir, New Line, Sonari, Jamshedpur, Jharkhand 831011",Jamshedpur,Jharkhand,India,NA,NA
MAA Durga agency just,"MAA Durga agency just, 2nd Govind Nagar main road uliyan kadma jsr-5, Jamshedpur, Jharkhand 831005",Jamshedpur,Jharkhand,India,NA,NA
M/s. Ayodhya Enterprises,"M/s. Ayodhya Enterprises, H.No. 77, Golmuri Market, Jamshedpur, Jharkhand 831003",Jamshedpur,Jharkhand,India,094319 32417,NA
Sangita construction,"Sangita construction, Tata kandra Main Road, near Narbheram Honda Dvc More, Gamharia, Jamshedpur, Jharkhand 832108",Jamshedpur,Jharkhand,India,NA,NA
Hari Enterprises,"Hari Enterprises, Shop No. 33, Chunna Line, Sakchi, Jamshedpur, Jharkhand",Jamshedpur,Jharkhand,India,098013 40051,NA
Hi-Life,"Hi-Life, Harmu, Harmu-Argora Bypass Road & Main Road, Shiv Dayal Nagar, Ranchi, Jharkhand 834002",Ranchi,Jharkhand,India,093342 94300,NA
M/S. J.J. Sales,"M/S. J.J. Sales, Syndicate Building, Kantatoli Chowk, Ranchi, Jharkhand 834001",Ranchi,Jharkhand,India,096935 03536,NA
New S.K. Paints,"New S.K. Paints, Church Rd, Lower Bazaar, Ranchi, Jharkhand 834001",Ranchi,Jharkhand,India,0651 235 1247,NA
Sumit hardware and sanitary store,"Sumit hardware and sanitary store, Jora mander sidroll, Namkum, Ranchi, Jharkhand 834010",Ranchi,Jharkhand,India,NA,NA
Shree ganesh Traders,"Shree ganesh Traders, Shiwam complex, opp. plaza chinema, Jharkhand 834001",Ranchi,Jharkhand,India,098351 32256,NA
JK Wall Paint Shop,"JK Wall Paint Shop, UBI Bank Street, Ranchi - Purulia Rd Jaipal Nagar, TetryTolly Basti, Tetry Toli, Ranchi - Purulia Rd, Jaipal Nagar, TetryTolly Basti, Tetry Toli, Ranchi, Jharkhand 834010",Ranchi,Jharkhand,India,099054 71862,NA
Ajay Paint Centre & Hardware,"Ajay Paint Centre & Hardware, Super Market, Kokar Rd, Lalpur, Ranchi, Jharkhand 834001",Ranchi,Jharkhand,India,098351 18264,NA
Colour Centre,"Colour Centre, Omair Alan Khan Jamal Building, Opp. Kadru Govt. Primary School Between Hajj House and, Ashok Nagar Rd Number 1, Ranchi, Jharkhand 834002",Ranchi,Jharkhand,India,098353 22440,NA
NEHA AGENCIES,"FLAT NO, NEHA AGENCIES, Mewara Kunj, 202, Baralal St, Upper Bazar, Ranchi, Jharkhand 834001",Ranchi,Jharkhand,India,NA,NA
Parwati Paint & Hardware,"Parwati Paint & Hardware, Near 1.N Gate, H.B.Road, Deepatoli, Ranchi, Jharkhand 834009",Ranchi,Jharkhand,India,095727 41999,NA
Omkar Glass,"Omkar Glass, Plot No. B/3, Sector 9, B Road, Centre Market, Bokaro Steel City, Jharkhand 827009",Dugda,Jharkhand,India,094317 38515,NA
"Pankaj Paints (Asian paints, Nerolac Paints, Berger paints)","Pankaj Paints (Asian paints, Nerolac Paints, Berger paints), Dumka Rd, Jarmundi, Jharkhand 814141",Dumka,Jharkhand,India,NA,NA
AGARWAL HARDWARE,"AGARWAL HARDWARE, Kandra, bazar, Rohraband, Jharkhand 828120",Bhojudih,Jharkhand,India,NA,NA
Keshri Brothers,"Keshri Brothers, Main Road, near Burma jeweller's, Jharkhand 814101",Dumka,Jharkhand,India,NA,https://keshribrothers.business.site
Sujatha Traders,"Sujatha Traders, JPN Rd, Mission Compound, Shivamogga, Karnataka 577201",Shimoga,Karnataka,India,094481 48095,NA
VENKATAGIRI PAINTS,"VENKATAGIRI PAINTS, 2nd Cross Rd, KIADB Auto Complex, Vinoba Nagara, Shivamogga, Karnataka 577204",Shimoga,Karnataka,India,NA,NA
DHANALAXMI Traders,"DHANALAXMI Traders, LLR Rd, Durgigudi, Shivamogga, Karnataka 577201",Shimoga,Karnataka,India,088803 55561,http://dhanalaxmi-traders.business.site
BCK Traders,"BCK Traders, Bandigadi Complex, Kashipura Main Road, Shivamogga, Karnataka 577204",Shimoga,Karnataka,India,NA,NA
Billava Traders,"Billava Traders, N.T. Road, Krishna Tyres Building, opp. Gajanana Rice Mill Compound, Shivamogga, Karnataka 577202",Shimoga,Karnataka,India,094811 53195,NA
Sri Balaji Enterprises,"Sri Balaji Enterprises, NT Rd, opp. Kamath Petrol Bunk, Gandhi Bazar, KR Puram, Shivamogga, Karnataka 577201",Shimoga,Karnataka,India,098458 39296,NA
Mahalakshmi Agency,"Mahalakshmi Agency, Near Laxmi Talkies Circle, 100 Feet Road, Rajendra Nagar, Shivamogga, Karnataka 577201",Shimoga,Karnataka,India,095909 22888,NA
Nisarga Enterprises,"Nisarga Enterprises, Opp Pruthvi Mansion, Vinobanagar Main Road, Shimoga, Shivamogga, Karnataka 577204",Shimoga,Karnataka,India,094801 71329,NA
Sri Mahaveer Trading Co,"Sri Mahaveer Trading Co, BH Road, Karnataka Sanga Complex, Shivamogga, Karnataka 577201",Shimoga,Karnataka,India,097421 84650,NA
A.R. Traders,"A.R. Traders, N.T. Road, opp. MRF Show Room, Shivamogga, Karnataka 577201",Shimoga,Karnataka,India,096203 60265,NA
Ramdev hardware & Plywoods,"Ramdev hardware & Plywoods, Hebbal Main Road, Hebbal Main Road, Metagalli, near Basavanagudi Main Road, Mysuru, Karnataka 570016",Mysore,Karnataka,India,099016 28119,NA
Sri VenkateshwaraTraders,"Sri VenkateshwaraTraders, #591, 10th Main Rd, Mahadeswara extension, Gokulam 3rd Stage, Gokulam, Mysuru, Karnataka 570016",Mysore,Karnataka,India,NA,NA
BW ELEGANT PAINTS&GLASS,"BW ELEGANT PAINTS&GLASS, 1678, Syed Abdul Rahman Rd, 2nd Phase, 2nd Stage, Rajiv Nagar, Mysuru, Karnataka 570019",Mysore,Karnataka,India,NA,NA
Punitha Traders,"Punitha Traders, 240, Near Surya Bakery, Hebbal, Mysuru, Karnataka 570016",Mysore,Karnataka,India,094482 93661,NA
Sapthagiripaints.,"Sapthagiripaints., Belvatta, Belvata, Mysuru, Karnataka 570003",Mysore,Karnataka,India,097419 62221,NA
L.N.ENTERPRISES,"L.N.ENTERPRISES, Lakshmikanth Nagar, Hebbal 1st Stage, Mysuru, Karnataka 570016",Mysore,Karnataka,India,NA,NA
Ganavi paints and hardware,"Ganavi paints and hardware, #25/3 opp muthoot fincorp, T Narsipura Rd, near S N S school, Alanahalli Village, Mysuru, Karnataka 570028",Mysore,Karnataka,India,NA,NA
Capital paints and hardware,"Capital paints and hardware, 87c 1 st floor, Mahadevapura Main Rd, Udayagiri, Mysuru, Karnataka 570019",Mysore,Karnataka,India,NA,NA
Ramdev Hardware And Paints,"Ramdev Hardware And Paints, Shakthinagar, Mysuru, Karnataka 570029",Mysore,Karnataka,India,NA,NA
New Dhanalakshmi Hardware,"New Dhanalakshmi Hardware, Bus Stop, 283, Hunsur Main Road, Hunsur, Main Rd, Hootagalli, Mysuru, Karnataka 570018",Mysore,Karnataka,India,NA,NA
Prakyath Paints And Hardwares,"Prakyath Paints And Hardwares, Hosabettu, Surathkal, Kulai, Mangalore, Karnataka 575019",Mangalore,Karnataka,India,0824 240 6807,NA
Kamath Traders Paints & Hardwares,"Shop No. 11, Kamath Traders Paints & Hardwares, New Central Market Building, Market Road, Bhavathi, Bunder, Mangalore, Karnataka 575001",Mangalore,Karnataka,India,0824 242 2921,NA
Surface Coats,"Surface Coats, Platinum Jublee Building, Bunts Hostel Circle, KRR Road, Kadri, Mangalore, Karnataka 575002",Mangalore,Karnataka,India,NA,NA
M.A. Enterprise,"M.A. Enterprise, 20-1-122/6 cutuchi memon masjid building, Mohammed Ali Rd, Bunder, Mangalore, Karnataka 575001",Mangalore,Karnataka,India,NA,NA
Panchmal Traders,"Panchmal Traders, Beebi Alabi Road, Maidan 4th Cross Rd, near Bunder, Mangalore, Karnataka 575001",Mangalore,Karnataka,India,099863 01908,NA
Imperial Paints & Chemicals,"Imperial Paints & Chemicals, Neemarga, P O Rock Field Tower, P O Rock Field Tower, Mangalore, Karnataka 575012",Mangalore,Karnataka,India,0824 277 4292,NA
Sugam Paint Industries,"Sugam Paint Industries, Lehari Kodialguthu East, Iind Cross, Behind Leela Mansion, Iind Cross, Mangalore, Karnataka 575003",Mangalore,Karnataka,India,0824 240 7331,NA
Varnaa Paints,"Varnaa Paints, Sannidhi, Derebail-Konchadi, Mangalore, Karnataka 575008",Mangalore,Karnataka,India,099015 12102,https://business.google.com
Rai car spray painting,"Rai car spray painting, Near Karnataka Polytechnic, Nanthoor Junction, Mangalore, Karnataka 575004",Mangalore,Karnataka,India,NA,NA
Ultrashine,"Ultrashine, Door No. 3-W-29-2372/9, City Commercial Complex, Near City Hospital & Thejaswini Hospital, Kadri, Mangalore, 575003",Mangalore,Karnataka,India,087925 78150,NA
Shiva Traders,"Shiva Traders, 89 2/B Vardappa Galli Belgaum Near Dhakojhi Hospital Old PB road, Vardappa Galli, Teachers Colony, Belgaum, Karnataka 590004",Belgaum,Karnataka,India,NA,NA
Happy enterprises,"Happy enterprises, cross, Nilji, Karnataka 591313",Belgaum,Karnataka,India,NA,NA
7 K Enterprises,"7 K Enterprises, Goaves Shopping Complex, 33 Goaves, Goaves, Belgaum, Karnataka 590011",Belgaum,Karnataka,India,NA,NA
Laxmi Electricals & Hrdware,"Laxmi Electricals & Hrdware, Sambra, Karnataka 591124",Belgaum,Karnataka,India,080501 88188,NA
Asian paints ( Patil Traders ),"Asian paints ( Patil Traders ), opposite SPINNING MILL, Pant Nagar, Pant Balekundri, Karnataka 591103",Belgaum,Karnataka,India,NA,NA
Ambica Paints,"Ambica Paints, 473, Khade Bazar, Shahapur, Belgaum, Karnataka 590001",Belgaum,Karnataka,India,0831 248 8656,NA
Shri Ganesh Paints & Plastics,"Shri Ganesh Paints & Plastics, 213, Srishail Complex, Khade Bazar, Shahapur, Belgaum, Karnataka 590003",Belgaum,Karnataka,India,090363 69244,NA
Sanny Oxides And Paints,"Sanny Oxides And Paints, Plot No. 9, Sry. No. 344/7, Udyambag, Belgaum, Karnataka 590008",Belgaum,Karnataka,India,094483 69547,NA
Shri Omkar Paints,"Shri Omkar Paints, Corner, Goaves, 2063, Shri Krishna Building Near Dak Bungalow, Kore Galli, Shahapur, Belgaum, Karnataka 590011",Belgaum,Karnataka,India,097425 57521,NA
Indradhanush Paints,"Indradhanush Paints, Union Society, Azam Nagar, Belgaum, Karnataka 590019",Belgaum,Karnataka,India,NA,NA
asian paints,"asian paints, Shrinivaasa Nagara, Davanagere, Karnataka 577002",Harihar,Karnataka,India,NA,https://www.asianpaints.com
G.K. Hardware & Paints,"G.K. Hardware & Paints, Bertuur Road, Davanagere, Karnataka 577001",Harihar,Karnataka,India,096635 06268,NA
M.M. Hardwares,"M.M. Hardwares, Chamrajpet, Stall No. 77, Davanagere, Karnataka 577001",Harihar,Karnataka,India,094487 28994,NA
Shree Vinayaka Enterprises,"Shree Vinayaka Enterprises, #1224/54 & 1225/55, Seethamma Complex, Jayanagara 'B"" Block, SS Hi Tech Hospital, Davanagere, Karnataka 577004",Harihar,Karnataka,India,090665 62529,NA
Sri Basaveshwara Colour World,"Sri Basaveshwara Colour World, Musturrshwara Complex Near Pavan Bar SS Layout Shamanur Road, 1650, Shamanur Road, SS Layout, Davanagere, Karnataka 577004",Harihar,Karnataka,India,091645 07211,NA
Sri Ganesh Hardware,"Sri Ganesh Hardware, Old, PB Rd, Opp to trishul theatre, Neelammana Thota, Bhagat Singh Nagar, KB Extension, Davanagere, Karnataka 577001",Harihar,Karnataka,India,081922 50533,NA
Pragathi Paints And Hardwares,"Pragathi Paints And Hardwares, Near Pooja Hotel, P.B. Road Ellamma Nagar, 577006, Vinobha Nagar, Davanagere, Karnataka 577004",Harihar,Karnataka,India,099640 49988,NA
Shwetha Enterprises,"Shwetha Enterprises, Ellamma Nagar, Vinobha Nagar, Davanagere, Karnataka 577002",Harihar,Karnataka,India,NA,NA
Sri Malleshwara Enterprises,"Sri Malleshwara Enterprises, #1659/35 Opp: Shamanur Shivashankrappa Kalyana, Vidya Nagar, near Vijay Bank, Davanagere, Karnataka 577005",Harihar,Karnataka,India,099726 01354,NA
Sneha marketing,"Sneha marketing, Chamaraj pet, Davanagere, Karnataka 577002",Harihar,Karnataka,India,NA,NA
Safeway,"Safeway, KP Kesava Menon Rd, Opp Kozhikode Town Police Station, Kozhikode, Kerala 673001",Kozhikode,Kerala,India,0495 236 6654,http://www.safeway.com
Home Touch,"Home Touch, Karikkamkulam, Thadampattuthazham, Kozhikode, Kerala 673009",Kozhikode,Kerala,India,098959 27515,NA
Colour World,"Colour World, Panniyankara Overbridge, Kallai, Kozhikode, Kerala 673003",Kozhikode,Kerala,India,NA,NA
EP colours paints & Hardwares,"EP colours paints & Hardwares, West, pallikandi road, Kallai, Kozhikode, Kerala 673003",Kozhikode,Kerala,India,NA,https://ep-colours-paints-hardwares.business.site
P.K. Hardware,"P.K. Hardware, Kallai Rd, Vattampoil, Vattampoyil, Chalappuram, Kozhikode, Kerala 673002",Kozhikode,Kerala,India,098951 12911,NA
Hi-Build Coatings Pvt. Ltd.,"Hi-Build Coatings Pvt. Ltd., Room No.3/3009, Vellayil Road & Beach Road, Kozhikode, Kerala 673032",Kozhikode,Kerala,India,0495 276 1008,http://www.hbc.co.in
Spray painting,"Spray painting, Chalappuram, Kozhikode, Kerala 673002",Kozhikode,Kerala,India,NA,NA
NEW GLACE SPRAY PAINTING WORKS,"NEW GLACE SPRAY PAINTING WORKS, Saibaba Mandir M, Kallai, Kozhikode, Kerala 673001",Kozhikode,Kerala,India,NA,NA
J.J. Paints,"No:050/1382, J.J. Paints, Wayanad Rd, Opposite District Central Library, East Nadakkave, Nadakkave, Kozhikode, Kerala 673011",Kozhikode,Kerala,India,0495 276 7373,NA
Kansai Nerolac paints,"Kansai Nerolac paints, 3/2501-A, Beach Rd, Kunnumal, Vellayil, Kozhikode, Kerala 673011",Kozhikode,Kerala,India,0495 236 0118,http://www.nerolac.com
St.George Paint Store,"St.George Paint Store, Ettumanoor - Peroor Rd, Peroor, Kerala 686637",Kottayam,Kerala,India,NA,NA
Colour Universe,"Colour Universe, Colour universe Sreesylam Building, Puthuppally, Kerala 686011",Kottayam,Kerala,India,098464 40124,NA
Rainbow Colour House,"Rainbow Colour House, Ettumanoor, Kerala 686631",Kottayam,Kerala,India,079027 51035,NA
Vijaya Trade Center,"Vijaya Trade Center, Market Landing Rd, near to seemati textiles, Market, Kottayam, Kerala 686001",Kottayam,Kerala,India,081568 05425,NA
Vembanad Agencies,"Vembanad Agencies, Kalarickal Bazar, Eerayil Kadavu, Kottayam, Kerala 686001",Kottayam,Kerala,India,0481 256 4314,NA
Canyon Paints,"Canyon Paints, Kottayam, Kerala 686001",Kottayam,Kerala,India,085890 23400,NA
British Paints,"British Paints, Near ICICI Bank ATM M.C, Kodathipady MC Rd, Ettumanoor, Kerala 686631",Kottayam,Kerala,India,094471 32466,http://www.britishpaints.in
House Of Paints,"House Of Paints, SH 1, Ettumanoor, Kerala 686631",Kottayam,Kerala,India,0481 253 3417,NA
Asian paints Colour Idea Store Ettumanoor,"Asian paints Colour Idea Store Ettumanoor, Parolickal House, Road, Ettumanoor, Kerala 686631",Kottayam,Kerala,India,090723 99552,NA
Asian paint Color world,"Asian paint Color world, Mannanam Rd, Mannanam, Kerala 686561",Kottayam,Kerala,India,NA,NA
Siva Sakthi Paints,"Siva Sakthi Paints, Karicode, Peroor, Kottamkara, Kerala 691005",Kollam,Kerala,India,092872 17100,NA
"Asian Paints Dealer , Alummoodu","Asian Paints Dealer , Alummoodu, Bus Stop, Alummoodu, Sarathy-Moideen Jct Rd, Kottamkara, Kerala 691576",Kollam,Kerala,India,NA,NA
Salman Traders,"Salman Traders, Salman .manzil, Thaha Jct Rd, Thattarkonam, Peroor, Kerala 691005",Kollam,Kerala,India,098957 89816,NA
MYK agencies,"MYK agencies, Kottiyam - Kundara Rd, Perumpuzha, Kottamkara, Kerala 691504",Kollam,Kerala,India,NA,NA
FAIHA TRADERS,"FAIHA TRADERS, Kottiyam - Kundara Rd, Thazhuthala, Kerala 691577",Kollam,Kerala,India,NA,NA
Sen Trade Center,"Sen Trade Center, Kollam District, Kundara, Kerala 691501",Kollam,Kerala,India,093879 69007,NA
SBA Agencies,"SBA Agencies, Nedumonkavu, Kundara, Kerala 691501",Kollam,Kerala,India,NA,NA
Saniya Colors,"Saniya Colors, Nedumonkavu, Kundara, Kerala 691501",Kollam,Kerala,India,NA,NA
GS Paints & Glass Centre,"GS Paints & Glass Centre, Nedumonkavu, Kundara, Kerala 691501",Kollam,Kerala,India,0474 252 5007,NA
KM Traders,"KM Traders, Unnamed Road, Anchalummood, Kerala 691601",Kollam,Kerala,India,NA,NA
Drishya Paints,"Drishya Paints, SS Shoping complex, Thirumala, Thiruvananthapuram, Kerala 695006",Thiruvananthapuram,Kerala,India,NA,NA
Jeeva Traders,"Jeeva Traders, Near Block Office, Kazhakkoottam, Thiruvananthapuram, Kerala",Thiruvananthapuram,Kerala,India,093877 57271,NA
QUALITY TRADERS,"QUALITY TRADERS, Pachalloor Punkulam Rd, Thiruvananthapuram, Kerala 695027",Thiruvananthapuram,Kerala,India,0471 238 0696,NA
ABC paint house,"ABC paint house, Test, Karyavattom, Thiruvananthapuram, Kerala 695581",Thiruvananthapuram,Kerala,India,NA,NA
NIPPON PAINTS (DAKSHINA PAINTS),"NIPPON PAINTS (DAKSHINA PAINTS), High School Rd, Kazhakuttam, Thiruvananthapuram, Kerala 695582",Thiruvananthapuram,Kerala,India,NA,NA
BUIL-TECH COLOURS,"BUIL-TECH COLOURS, TC 68/325-1, Farras Complex, Thiruvallam, Thiruvananthapuram, Kerala 695027",Thiruvananthapuram,Kerala,India,NA,NA
New Chala Agencies,"New Chala Agencies, Eanchakkal, Thiruvananthapuram, Kerala 695024",Thiruvananthapuram,Kerala,India,NA,NA
"M M Paints, Hardware, Plumbing Materials","M M Paints, Hardware, Plumbing Materials, Vallakkadavu, Thiruvananthapuram, Kerala 695008",Thiruvananthapuram,Kerala,India,098951 23362,NA
Ambili Paints,"Ambili Paints, Lalaji Junction, Karunagapally, Karunagapally, Thiruvananthapuram, Kerala 695573",Thiruvananthapuram,Kerala,India,0471 262 1952,NA
Vibgyor Colour World,"Vibgyor Colour World, Kazhakuttam, Vadakkumbhagam, Kazhakkoottam, Kerala 695301",Thiruvananthapuram,Kerala,India,NA,NA
Samajhdar Choice,"Samajhdar Choice, Main Road, Sanjeevani Nagar, Garha, Jabalpur, Madhya Pradesh 482003",Jabalpur,Madhya Pradesh,India,095842 48841,NA
Rani Traders & Hardware,"Rani Traders & Hardware, Amkhera Road, Jagriti Nagar, Gohalpur, Jabalpur, Madhya Pradesh 482002",Jabalpur,Madhya Pradesh,India,093000 83728,NA
British Paints,"British Paints, Shop No-6, Triveni Plaza Sharda Chowk, Madhya Pradesh 482002",Jabalpur,Madhya Pradesh,India,NA,NA
M/s Apollo Traders,"M/s Apollo Traders, 585, Nunhai Dixitpura Road, Jabalpur, Madhya Pradesh",Jabalpur,Madhya Pradesh,India,093008 00033,NA
Mahadeo Hardware,"Mahadeo Hardware, Gwarighat Road, Gorakhpur, Jabalpur, Madhya Pradesh 482001",Jabalpur,Madhya Pradesh,India,097532 32333,NA
Ess Kay Enterprises,"Ess Kay Enterprises, Shop No.3,81, Rabra Complex, Katanga Crossing, Jabalpur, Madhya Pradesh 482001",Jabalpur,Madhya Pradesh,India,094253 25759,NA
Color Zone,"Color Zone, Shop No. 03, Main Road, Ambedkar Ward, Damoh Naka, Trimurti Nagar, Jabalpur, Madhya Pradesh 482002",Jabalpur,Madhya Pradesh,India,098935 01207,NA
Nanak Traders,"Nanak Traders, Bengali Colony, Ranjhi, Jabalpur, Madhya Pradesh 482011",Jabalpur,Madhya Pradesh,India,088787 96720,NA
Kashish Enterprises,"Kashish Enterprises, 1098, Hathital Rd, Gorakhpur, Jabalpur, Madhya Pradesh 482001",Jabalpur,Madhya Pradesh,India,093294 01118,NA
AP ColourIdeas BHATIA HARDWARE STORES,"AP ColourIdeas BHATIA HARDWARE STORES, Shop No 2 & 3 Gujrati Mandal Market, opposite Old Vineet Cinema, Marhatal, Jabalpur, Madhya Pradesh 482002",Jabalpur,Madhya Pradesh,India,098930 31010,http://www.asianpaints.com
MMSolutions Paints & Hardware,"MMSolutions Paints & Hardware, Bholaram Ustad Marg, Bhawarkua, Sector A, Shivampuri Colony, Indore, Madhya Pradesh 452009",Indore,Madhya Pradesh,India,099777 55517,http://business.google.com
SHYAM TRADERS,"SHYAM TRADERS, 293-A, Sector A, Mahalaxmi Nagar, Indore, Madhya Pradesh 452010",Indore,Madhya Pradesh,India,099775 75353,https://shyamtraders-paintstore.business.site
Arti Enterprises,"#429, Arti Enterprises, Kanadia Main Rd, Alok Nagar, Indore, Madhya Pradesh 452016",Indore,Madhya Pradesh,India,098265 72574,NA
T.A Lokhandwala,"T.A Lokhandwala, 122, Siyaganj, Indore, Madhya Pradesh 452007",Indore,Madhya Pradesh,India,NA,http://ta-lokhandwala.business.site
Sk traders,"Sk traders, Apply hospital, 49, near by Indore, Transport Nagar, Indore, Madhya Pradesh 452001",Indore,Madhya Pradesh,India,NA,http://www.sk.com
Chandan Traders,"Chandan Traders, No.3119-E, Western Ring Rd, Sector E, Sudama Nagar, Indore, Madhya Pradesh 452012",Indore,Madhya Pradesh,India,NA,NA
hakimi hardware and paint,"hakimi hardware and paint, 3 sukhdev nagar 60 fit road pallar pani ki tanki, Madhya Pradesh 452001",Indore,Madhya Pradesh,India,NA,https://hakimi-hardware-and-paint.business.site
Ezzi paints and sanitary,"Ezzi paints and sanitary, Shop no.G-3,Naman avenue nager, 103,kesarbagh Road, Indore, Madhya Pradesh 452009",Indore,Madhya Pradesh,India,097557 45552,http://business.google.com
Suvidha traders,"Suvidha traders, 82, Banganaga Main Rd, Kushwaha Nagar, Nanda Nagar, Banganga, Indore, Madhya Pradesh 452015",Indore,Madhya Pradesh,India,0731 242 2209,NA
New Hardware & Paints,"54, New Hardware & Paints, Netaji Subhash Marg, Subash Marg, Imli Bazar, Indore, Madhya Pradesh 452004",Indore,Madhya Pradesh,India,098264 30005,NA
Lakshya Traders,"Shop No. 2, Lakshya Traders, A-17, Kolar Rd, Sarvdharm, Sarvdharm Colony, Kolar Rd, Bhopal, Madhya Pradesh 462001",Bhopal,Madhya Pradesh,India,0755 424 6081,NA
Asian Paints Awadhpuri,"Plot No.8, Asian Paints Awadhpuri, Rachna Vihar, Magnum Vihar, Awadhpuri, Bhopal, Madhya Pradesh 462022",Bhopal,Madhya Pradesh,India,097709 99333,NA
Paras Hardware,"Paras Hardware, Shamin Manzil, Raj Talkies Rd, Pratap Nagar, Jahangirabad, Bhopal, Madhya Pradesh 462008",Bhopal,Madhya Pradesh,India,075099 96055,NA
Bharat Traders,"Bharat Traders, 2, New Market, STT Nagar, TT Nagar, Bhopal, Madhya Pradesh 462003",Bhopal,Madhya Pradesh,India,0755 255 6297,NA
Jain Traders,"Jain Traders, Bus Stand, Gandhinagar Gandhinagar, Gandhi Nagar, Bhopal, Madhya Pradesh 462036",Bhopal,Madhya Pradesh,India,099070 01527,NA
Milan radium cutting,"Milan radium cutting, Shop no 25, Tulsi nagar, 2nd stop, Bhopal, Madhya Pradesh 462003",Bhopal,Madhya Pradesh,India,097523 66063,NA
Gupta Trading Company,"Shop No. 1, Gupta Trading Company, Berasia Rd, opp. Bandhan Shadi Hall, Near Pipal Square, Rusalli, Karond, Bhopal, Madhya Pradesh 462038",Bhopal,Madhya Pradesh,India,NA,NA
R.K Traders,"15, R.K Traders, New Market, STT Nagar, TT Nagar, Bhopal, Madhya Pradesh 462003",Bhopal,Madhya Pradesh,India,0755 255 4006,NA
Nirman Enterprises,"H No. 54, Nirman Enterprises, Ashoka Garden, Ashoka Vihar, Bhopal, Madhya Pradesh 462023",Bhopal,Madhya Pradesh,India,093298 04352,NA
R.N.G. Enterprises,"R.N.G. Enterprises, Yantriki Bhawan, Zone-I, Maharana Pratap Nagar, Bhopal, Madhya Pradesh 462016",Bhopal,Madhya Pradesh,India,NA,NA
Goyal Paints,"Goyal Paints, Shaheed Circle, Hem Singh ki Pared, Sikandar Kampoo, Gwalior, Madhya Pradesh 474001",Gwalior,Madhya Pradesh,India,097704 68585,NA
Bantu Paints,"Bantu Paints, Taraganj Pull Rd, Taraganj, Samadhiya Colony, Kala Saiyad, Gwalior, Madhya Pradesh 474001",Gwalior,Madhya Pradesh,India,NA,NA
Shiv Pop House,"Shiv Pop House, Infront Of, near Naka Chandra Wadani, Yadav Colony, Gwalior, Madhya Pradesh 474009",Gwalior,Madhya Pradesh,India,098277 22910,NA
M/s. Raja Paints,"M/s. Raja Paints, Lohiya Bazaar Rd, Dal Bazaar, Lashkar, Gwalior, Madhya Pradesh 474009",Gwalior,Madhya Pradesh,India,093021 13329,NA
Kailadevi Paints,"Kailadevi Paints, Koteshwar, Chandan Nagar, Gwalior, Madhya Pradesh 474003",Gwalior,Madhya Pradesh,India,099936 86745,NA
P.O.P. House,"P.O.P. House, Roshni Ghar Rd, Near SDM Road, Jayendraganj, Lashkar, Gwalior, Madhya Pradesh 474009",Gwalior,Madhya Pradesh,India,0751 645 0627,NA
"Paint, hardware and sanatery store","Paint, hardware and sanatery store, In front of madhur courier,near Janak hospital,huzrat road, road 3, Jinsi Nala Number 4, Gwalior, Madhya Pradesh 474001",Gwalior,Madhya Pradesh,India,NA,https://paint-hardware-and-sanatery-store.business.site
S.S. Hardware & Paints,"S.S. Hardware & Paints, Near Police Chowki, AH47, Gol Pahadiya, Gwalior, Madhya Pradesh 474001",Gwalior,Madhya Pradesh,India,094069 78303,NA
Aastha Tiles And Paints,"B-Block, Aastha Tiles And Paints, Sagartaal Chauraha, Anand Nagar, Gwalior, Madhya Pradesh 474012",Gwalior,Madhya Pradesh,India,094253 07460,NA
Akash Iron & Paints,"Akash Iron & Paints, Raj Mandi, Ghauspura, Gwalior, Madhya Pradesh 474008",Gwalior,Madhya Pradesh,India,NA,https://akash-iron-paints.business.site
Imperial Stores,"Imperial Stores, Anuppur, Madhya Pradesh 484224",Anuppur,Madhya Pradesh,India,078691 83449,NA
Viswakarma Paint And Spray Shop,"Viswakarma Paint And Spray Shop, petrol pump, Bordehi Rd, Harnya, Madhya Pradesh 460554",Amla,Madhya Pradesh,India,NA,NA
Goyal Enterprises,"Goyal Enterprises, behind Reliance Petrol Pump Near Canara Bank,Naya Bus Stand, Ashoknagar, Madhya Pradesh 473331",Ashoknagar,Madhya Pradesh,India,NA,NA
Gaurav Paints,"Gaurav Paints, Ashoknagar,, Purana Bazar, Ashoknagar, Madhya Pradesh 473331",Ashoknagar,Madhya Pradesh,India,NA,NA
Neeraj painter khushigraphics,"Neeraj painter khushigraphics, Bajrang Colony, Ashta, Madhya Pradesh 466116",Ashta,Madhya Pradesh,India,NA,http://www.khushigraphics.com
Woodland Sheets,"Woodland Sheets, Lohia Rd, Gandhinagar, Maharashtra 416119",Kolhapur,Maharashtra,India,NA,NA
Siddhant spray painting,"Siddhant spray painting, Shastri Nagar, Kolhapur, Maharashtra 416008",Kolhapur,Maharashtra,India,NA,NA
Patvegar Enterprises,"Patvegar Enterprises, 732, 4th Ln, E Ward, Shahupuri, Kolhapur, Maharashtra 416001",Kolhapur,Maharashtra,India,098609 44959,NA
Satyam Paints,"Satyam Paints, shiru chowk road, Gandhinagar, Maharashtra 416119",Kolhapur,Maharashtra,India,NA,NA
Deshmukh Paints,"Deshmukh Paints, E Ward, bhosale park, Kadamwadi, Kolhapur, Maharashtra 416003",Kolhapur,Maharashtra,India,NA,NA
Aarambh traders,"Aarambh traders, Subhash Rd, Laxmipuri, Kolhapur, Maharashtra 416005",Kolhapur,Maharashtra,India,NA,NA
Ekta Paints,"Ekta Paints, Vasanshah Colony, Gandhinagar, Maharashtra 416119",Kolhapur,Maharashtra,India,NA,NA
ANKUSH PAINTS,"ANKUSH PAINTS, Opp Swastik Market,Mainroad, Gandhinagar, Maharashtra 416119",Kolhapur,Maharashtra,India,0231 261 3778,NA
Sai Paints,"Sai Paints, Y.P.Powar nagar, Kolhapur, Maharashtra 416008",Kolhapur,Maharashtra,India,0231 269 0711,NA
STAR MARKETING,"STAR MARKETING, SHAHUNAGAR, GANPATI CHOWK, Kolhapur, Maharashtra 416008",Kolhapur,Maharashtra,India,095959 37899,NA
Jotun,"Jotun, 124, Sant Savata Mali Marg, Opposite Masina Hospital, Byculla East, Byculla, Mumbai, Maharashtra 400027",Mumbai,Maharashtra,India,044 2841 9420,http://www.jotun.com
S.Rajnikant & Co,"S.Rajnikant & Co, Shop No-8, R.K. Building-2, Opposite Jain Temple Khetwadi 9th Lane Grant Road Area, Khetwadi, Girgaon, Mumbai, Maharashtra 400004",Mumbai,Maharashtra,India,022 2382 9146,NA
Milan Electrical Hardware & Paints,"Milan Electrical Hardware & Paints, Vijay Nagar Chawl, Opp. Navjeevan Society, Mahul Road, Near Shankar Temple, Chembur East, Mumbai, Maharashtra 400074",Mumbai,Maharashtra,India,099676 69818,NA
Khuzema Hardware Stores,"Khuzema Hardware Stores, 275, Balgovind Chawl, Lamington Rd, Grant Road East, Grant Road, Mumbai, Maharashtra 400007",Mumbai,Maharashtra,India,022 2309 6212,NA
Mohanlal Rajmal & Co,"Mohanlal Rajmal & Co, Anju Shopping Centre, 6, Tilak Rd, Bajaj Wadi, Railway Colony, Santacruz West, Mumbai, Maharashtra 400054",Mumbai,Maharashtra,India,022 2605 7035,http://www.dulux.in
Fakhri Paint Centre,"Fakhri Paint Centre, E-29, Rizvi Park , S.V. Road, Santacruz West, opp. Dheeraj Heritage, Mumbai, Maharashtra 400054",Mumbai,Maharashtra,India,NA,NA
Mukesh & Company,"Mukesh & Company, Shop No. 8, Santacruz Mansion No.1, Opp. Railway Station, Santacruz East, opp. Bus Depot, Mumbai, Maharashtra 400055",Mumbai,Maharashtra,India,022 2610 8178,NA
Maruti Paint Mart,"Maruti Paint Mart, Dattatray Rd, opposite Shamshan Bhoomi, Shastri Nagar, Santacruz West, Mumbai, Maharashtra 400054",Mumbai,Maharashtra,India,NA,NA
Shreenath Paint & Hardware Stores,"Shreenath Paint & Hardware Stores, Shop No.7, Piroja Court 2nd, Gazdhar Bandh Road, Opp. Kalpna Hotel, Santacruz (W), Mumbai, Maharashtra 400054",Mumbai,Maharashtra,India,022 2661 2798,NA
Star Paints,"Star Paints, Sitladevi Opp.Kala Pradarshani ,Link Road, near Barfiwala Signal, D.N.Nagar, Andheri West, Mumbai, Maharashtra 400058",Mumbai,Maharashtra,India,022 6510 0841,http://www.starpaintindia.com
Shilpa Trading,"Shilpa Trading, 24, Hingane Home Colony, Karve Nagar, Pune - 411052",Pune,Maharashtra,India,020 6450 5829,NA
Sajid Painter,"Sajid Painter, Police Station, Sr.No.315,Markendey Nagar,Vaiduwadi, Near Wanowrie, Hadapsar, Pune, Maharashtra 411013",Pune,Maharashtra,India,NA,NA
Deepak Paints,"Deepak Paints, Matrismirti Building, Pune - Solapur Road, Gadital, Hadapsar, Pune, Maharashtra 411028",Pune,Maharashtra,India,020 2399 9361,NA
Asian Paints Home Solutions,"Asian Paints Home Solutions, No 43, Karve Rd, Hingne Budrukh, Erandwane, Pune, Maharashtra 411004",Pune,Maharashtra,India,NA,https://www.asianpaints.com
Kankoo Paints PVT. LTD.,"Kankoo Paints PVT. LTD., Camp, Pune, Maharashtra 411001",Pune,Maharashtra,India,020 2634 6180,NA
Krishna paints,"Krishna paints, 694/10, ,pune, Shivneri Path, opp. Kamal narsing, Market Yard, Maharshi Nagar, Pune, Maharashtra 411037",Pune,Maharashtra,India,099222 98123,NA
Evergreen Trading Agency,"Evergreen Trading Agency, Bohari Ali, Rameshwar Chouk, Budhwar Peth, Pune, Maharashtra 411002",Pune,Maharashtra,India,020 2447 1292,NA
PRAGATI PAINTS,"PRAGATI PAINTS, Sr.No 85/2, Shop No 3, BhimaShankar Co-op. Hsg. Society, Solapur road, Hadapsar, near Vaibhav Cinema, Pune, Maharashtra 411028",Pune,Maharashtra,India,090495 03040,NA
Purple Colours & Hardware,"Shop No. 35, Purple Colours & Hardware, Amar Samriddhi Complex, Pune - Solapur Rd, near Aakashwani, Parijat Colony, Sadhana Society, Hadapsar, Pune, Maharashtra 411028",Pune,Maharashtra,India,NA,NA
India Paints,"India Paints, S.no 63/1, Shop no.1, Mahadev Vihar, Satar Road, Paravati,, Sant Nagar, Parvati Paytha, Pune, Maharashtra 411009",Pune,Maharashtra,India,098604 02894,NA
Gurudeo lime stores,"Gurudeo lime stores, chuna oli, itwari, Nagpur, Maharashtra 440002",Nagpur,Maharashtra,India,0712 277 1614,NA
D B Mehta & Sons,"D B Mehta & Sons, Wholesale Cloth Market, Jaganath Rd, Nanga Putla Chowk,Near Police Station, Gandhibagh, Nagpur, Maharashtra 440002",Nagpur,Maharashtra,India,098906 04832,NA
Deepak Paint Mart,"Deepak Paint Mart, Amar Sajjan Complex, Mangalwari, Sadar, Mangalwari, Nagpur, Maharashtra 440001",Nagpur,Maharashtra,India,0712 252 6744,NA
Hakik Paints,"Hakik Paints, Medical college Road, Baidhnath Square, Ganeshpeth, Nagpur, Maharashtra 440018",Nagpur,Maharashtra,India,NA,NA
Colourful Store,"Colourful Store, 27, Ghat road, Sardar Patel Square, Nagpur, Maharashtra 440018",Nagpur,Maharashtra,India,090968 80080,https://colourful-store.business.site
Paras Paints,"Paras Paints, Plot No.483, Shop No.3, Medical College Road, Chandan Nagar,, Medical Square,, Nagpur, Maharashtra 440009",Nagpur,Maharashtra,India,094036 77232,NA
Asian Traders,"Asian Traders, Vishvanathaji Rahate Bhavan, Loha Oli, Itwari, Itwari, Nagpur, Maharashtra 440002",Nagpur,Maharashtra,India,0712 276 4730,http://asiantradersindia.com
J.P. Enterprises,"J.P. Enterprises, Khamele Chamber, Dharaskar Gali, Opposite Khamele Chamber. City Post Office, Itwari, Nagpur, Maharashtra 440002",Nagpur,Maharashtra,India,098503 34560,NA
Vasant Colour And Chemicals,"Vasant Colour And Chemicals, Dharaskar Gali, Banre Mohalla, Loha Oli, Itwari, Nagpur, Maharashtra 440002",Nagpur,Maharashtra,India,0712 277 2294,NA
P.G Kale & Sons,"P.G Kale & Sons, 6-7, A- Wing Keshav Imperial, Pandit Malviya Rd, Sitabuldi, Nagpur, Maharashtra 440012",Nagpur,Maharashtra,India,NA,NA
M/s. Vinay Paints Supply Company,"Shop No. 1, M/s. Vinay Paints Supply Company, Hetal Apartment, 543, NS Rd, near Syndicate Bank, Siddharth Nagar, Mulund West, Mumbai, Maharashtra 400080",Thane,Maharashtra,India,022 2560 3569,NA
Color Choice centre,"Color Choice centre, Shop no.2, Shree Ganesh Darshan Building, Hari Niwas Circle, Thane West, Mumbai, Maharashtra 400601",Thane,Maharashtra,India,022 2538 0627,NA
Colour Corner,"Colour Corner, Shop No : 4 , Vaitywadi, Old Agra Road , Thane West, near Aaradhna Talkies, Mumbai, Maharashtra 400602",Thane,Maharashtra,India,NA,NA
Probation electric &hardware,"Probation electric &hardware, 1, Nikam Guruji Rd, Phase I, Vrindavan Society, Thane West, Thane, Maharashtra 400601",Thane,Maharashtra,India,NA,NA
"PNP Hardware ,Electricals and paints","PNP Hardware ,Electricals and paints, Bhoir Wadi, Singh Nagar, Thane West, Pune, Maharashtra 400601",Thane,Maharashtra,India,098928 56283,NA
Deepak Trading Company,"Deepak Trading Company, Ghodbundar Road, Gowniwada, Ovla Naka, Thane West, Thane, Maharashtra 400607",Thane,Maharashtra,India,097697 37354,NA
Mahavir Paints Co.,"Mahavir Paints Co., Shop No.1 Ambaji dham bulding M.g.road Nearest 5 rasta, Mulund West, Mumbai, Maharashtra 400080",Thane,Maharashtra,India,093724 40221,NA
Rajawat Electrical & Industical Centre,"Rajawat Electrical & Industical Centre, Opposite Reunion Engineering Limited, Wagle Estate, Road Number 16 Z/32, Jai Bhavani Nagar, Wagle Industrial Estate, Thane West, Thane, Maharashtra 400604",Thane,Maharashtra,India,098700 25374,NA
Rastriya Marketing Pvt Ltd,"Rastriya Marketing Pvt Ltd, Shop No. 1 &2, Shanti Bhavan, NSB Road, Mulund West, near Railway Station, Mumbai, Maharashtra 400080",Thane,Maharashtra,India,022 2561 1043,NA
Mahavir Electric & Hardware Stores,"Mahavir Electric & Hardware Stores, Shop Number 4 Ram Ratan Trivedi Road Mahajanwadi, Mulund West, Mumbai, Maharashtra 400080",Thane,Maharashtra,India,098690 37160,NA
G.A.SONS,"5, G.A.SONS, Paradise Plaza, Shingada Talav, Renuka Nagar, Nashik, Maharashtra 422011",Nashik,Maharashtra,India,080870 20180,NA
AP ColourIdeas Cement Shoppe,"Shop No -03, AP ColourIdeas Cement Shoppe, Rushiraj Builders, Plot No.20,, Adwait Colony, Prashant Nagar, Canada Corner, Nashik, Maharashtra 422005",Nashik,Maharashtra,India,NA,https://www.asianpaints.com
S.A. Enterprises,"S.A. Enterprises, Ashwin Nagar, Nashik, Maharashtra 422010",Nashik,Maharashtra,India,099706 22224,NA
SATPUR HARDWARE AND PAINTS,"SATPUR HARDWARE AND PAINTS, 46/1, Trambakeshwar Rd, opposite Maule Petrol Pump, Mahadevwadi, Satpur Gaon, Satpur Colony, Nashik, Maharashtra 422007",Nashik,Maharashtra,India,080874 79013,NA
Sai Traders,"Sai Traders, Shri Prasad Apartment, Narhari Nagar, Damodar Nagar, Pathardi Phata, Nashik, Maharashtra 422010",Nashik,Maharashtra,India,073044 77755,NA
ALF PM SURFACE COATING PVT.LTD,"ALF PM SURFACE COATING PVT.LTD, MIDC Ambad, Nashik, Maharashtra 422010",Nashik,Maharashtra,India,NA,NA
Ganpati Stone,"Ganpati Stone, Gangapur Rd, Gangapur, Nashik, Maharashtra 422003",Nashik,Maharashtra,India,NA,NA
Shreeram Electricals & Hardware,"Shreeram Electricals & Hardware, Yogiraj Apartment, Kamatwade, Nashik, Maharashtra 422010",Nashik,Maharashtra,India,080870 64086,NA
H.P Enterprises,"Plot Number 1, 02, H.P Enterprises, Savarkar Nagar, Ashoknagar, Satpur Colony, Nashik, Maharashtra 422012",Nashik,Maharashtra,India,086006 39691,NA
STANDOX 2K PREMIUM AUTO PAINT,"STANDOX 2K PREMIUM AUTO PAINT, Pathardi Fata, Ashwin Nagar, Nashik, Maharashtra 422009",Nashik,Maharashtra,India,098229 53888,NA
Padmavati powder coating,"Padmavati powder coating, C- 274, Mahavir chowk, near Tirupati Hospital, Aurangabad, Maharashtra 431136",Aurangabad,Maharashtra,India,NA,NA
Vasani Traders,"Vasani Traders, Patel Chamber, Pandharpur, Aurangabad, Maharashtra 431136",Aurangabad,Maharashtra,India,098220 33446,NA
RAJ RANG,"RAJ RANG, Raj Galaxy, Rout Corner, Shri Nagar Colony, N-6, Cidco, Aurangabad, Maharashtra 431003",Aurangabad,Maharashtra,India,0240 248 1886,NA
Bhogale Coating & Paints Private Limited,"Bhogale Coating & Paints Private Limited, Hameed Ali Shah Marg, MIDC, Aurangabad, Maharashtra 431005",Aurangabad,Maharashtra,India,0240 233 5293,http://www.bhogalecoating.com
Pankaj Paints & Hardware,"Pankaj Paints & Hardware, Mahalaxmi Colony, Thakare Nagar, N 2, Cidco, Aurangabad, Maharashtra 431003",Aurangabad,Maharashtra,India,098225 43011,NA
Rahul Hardware And Paints,"Rahul Hardware And Paints, Pundalik Nagar Road, Ganesh Chowk, Husain Colony, Nyay Nagar, Aurangabad, Maharashtra 431009",Aurangabad,Maharashtra,India,0240 244 2206,NA
S.M. ENTERPRISES,"Plot No: 6, S.M. ENTERPRISES, Mayur Park Rd, Opposite S.B.O. A School, Jyotsana Housing Society, Mhasoba Nagar, Harsul, Aurangabad, Maharashtra 431003",Aurangabad,Maharashtra,India,097679 99880,NA
CHAUDHRI HARDWARE & PAINTS,"CHAUDHRI HARDWARE & PAINTS, Champa Chowk, Sharif Colony, Jaswantpura, Aurangabad, Maharashtra 431001",Aurangabad,Maharashtra,India,080878 78434,NA
Renuka Hardware & Paints,"Renuka Hardware & Paints, Jalgaon Rd, Hudco, Sudarshan Nagar, N 11, Aurangabad, Maharashtra 431003",Aurangabad,Maharashtra,India,099703 00206,NA
Bombay Hardware & Paints,"18, Bombay Hardware & Paints, Bhaji Mndi Road, Baroodgar Nala, Gulmandi, Shahgunj, Aurangabad, Maharashtra 431001",Aurangabad,Maharashtra,India,092253 13172,NA
M/s Saimaa Enterprises,"M/s Saimaa Enterprises, Damana Square, Max Showroom, Bhubaneswar, Odisha 751016",Bhubaneshwar,Odisha,India,NA,NA
Omm Traders - Asian Paints Ltd,"Omm Traders - Asian Paints Ltd, Koradakanta Rd, Kesora, Odisha 752101",Bhubaneshwar,Odisha,India,NA,http://spconstruction.in
Sulochana Hardware & Paint,"Sulochana Hardware & Paint, Shampur, Bhubaneswar, Odisha 751003",Bhubaneshwar,Odisha,India,NA,NA
Maa Tarini Hardware & Paints,"A/22, Maa Tarini Hardware & Paints, In Falcon House, Cuttack - Puri Road, Laxmisagar, Bhubaneswar, Odisha 751006",Bhubaneshwar,Odisha,India,094380 13156,NA
Dulux Paints,"Dulux Paints, HIG-109, Jagamara - Sundarpada Rd, Gandamunda, Pokhariput, Bhubaneswar, Odisha 751020",Bhubaneshwar,Odisha,India,NA,NA
Khandagiri hardware and paints,"Plot no 26, Khandagiri hardware and paints, near hillside nursing home, Amrit Nagar, Khandagiri, Bhubaneswar, Odisha 751003",Bhubaneshwar,Odisha,India,NA,NA
Phulwari Enterprises,"Phulwari Enterprises, 2974, Cuttack - Puri Bypass Rd, near Saptasati Mandir, Rasulgarh, Bhubaneswar, Odisha 751017",Bhubaneshwar,Odisha,India,NA,NA
Dhauli Traders,"Dhauli Traders, Old, Bhubaneswar - Puri Hwy, Uttara, Dhauli, Bhubaneswar, Odisha 751002",Bhubaneshwar,Odisha,India,NA,NA
Dalmia Magic P S Agency,"Dalmia Magic P S Agency, Puri Rd, Sisupalgarh, Bhubaneswar, Odisha 751002",Bhubaneshwar,Odisha,India,NA,NA
Dulux Paints,"Dulux Paints, Khandagiri Marg, Jagamara, Bhubaneswar, Odisha 751030",Bhubaneshwar,Odisha,India,NA,NA
Jagannath Traders,"Jagannath Traders, Nakhara, Phulnakhara (Infront of Checkgate), Khurda, Bhubaneswar, Odisha 754001",Cuttack,Odisha,India,0671 235 6792,NA
Dulux Paint,"Dulux Paint, Sambalpur - Angul - Dhenkanal - Cuttack Rd, Nuntikiri, Chaudwar, Odisha 754025",Cuttack,Odisha,India,NA,NA
Pinku marbal and tiles mistry,"Pinku marbal and tiles mistry, Cuttack, Odisha 753004",Cuttack,Odisha,India,NA,NA
Shree Ganesh Paints & Ply,"Shree Ganesh Paints & Ply, Justice chakk, CDA Sec - 10, Cuttack, Odisha 753014",Cuttack,Odisha,India,NA,NA
smartpainting,"smartpainting, Plot No-800/A,Mahanadi Vihar,Nayabazar, Near Haramani Mandap, Cuttack, Odisha 753004",Cuttack,Odisha,India,NA,NA
Sp brothers,"Sp brothers, NH16, near Mayur Hotel, Gandarpur, Cuttack, Odisha 753003",Cuttack,Odisha,India,089767 07477,https://sp-brothers-paint-store.business.site
Shreeji Trading,"Shreeji Trading, Kazi Bazar, Cuttack - 753001, Cuttack, Odisha 753001",Cuttack,Odisha,India,NA,NA
Ghanteswar Paints and Hardware,"Ghanteswar Paints and Hardware, near SBI Bank, Bentkar, Block Chhaka, Naya Bazaar, Cuttack, Odisha 754112",Cuttack,Odisha,India,NA,NA
Barun Paint,"Barun Paint, Sibaji Nagar Satichaura,Bidanasi, Road, Cuttack, Odisha 753008",Cuttack,Odisha,India,NA,NA
"Asian Paints,Berger Shop","Asian Paints,Berger Shop, At/ PO Jhinkiria, Via, Cuttack-42 Mouza Rd, Bentakar, Odisha 754112",Cuttack,Odisha,India,NA,NA
Shalimar Paints - Singla Oil Company,"Shalimar Paints - Singla Oil Company, Gurudwara Sahib Road, Village Sukgarh, Sambhalki, Sahibzada Ajit Singh Nagar, Punjab 140603",Mohali,Punjab,India,098764 68378,NA
Neel kamal traders,"Booth No - 42, Neel kamal traders, Sector 40C, Sector 40B, Chandigarh, 160036",Mohali,Punjab,India,NA,NA
City Paint & Painting,"City Paint & Painting, Shop No 165, New Mortor Market, Sector 48, Chandigarh, 160047",Mohali,Punjab,India,098885 09144,NA
Bansal Sons,"Bansal Sons, Sector 80, Sahibzada Ajit Singh Nagar, Punjab 140308",Mohali,Punjab,India,090410 61611,http://business.google.com
Anil Paint & Hardware Store,"Anil Paint & Hardware Store, SCO 955 Pind, Mattaur Rd, Sector 70, Sahibzada Ajit Singh Nagar, Punjab 160071",Mohali,Punjab,India,098150 76254,NA
Mahaluxmi Paint And Hardware Store,"Mahaluxmi Paint And Hardware Store, Paint Shop Phase 1, Village Mohali, Sahibzada Ajit Singh Nagar, Punjab 160055",Mohali,Punjab,India,098882 24409,https://mahaluxmi-paint-and-hardware-store.business.site
V.K Paints & Hardware Store,"V.K Paints & Hardware Store, Booth No. 23, Phase 7, Sector 61, Sahibzada Ajit Singh Nagar, Chandigarh 160062",Mohali,Punjab,India,0172 509 3453,NA
Shivalik Paints,"Booth No.7, Shivalik Paints, 11-12, Phase 7, Industrial Area, Industrial Area Phase 1, mohalli, Punjab 160055",Mohali,Punjab,India,098889 97726,NA
Haryana paint and hardware,"Haryana paint and hardware, Sco 75, Phase 9, Sahibzada Ajit Singh Nagar, Chandigarh 160062",Mohali,Punjab,India,NA,NA
Asian Paints - Empire Building Material,"Asian Paints - Empire Building Material, S.C.F. 97, S.A.S Nagar, Phase 3B-2, Sector 60, Sahibzada Ajit Singh Nagar, Punjab 160062",Mohali,Punjab,India,0172 509 1702,NA
Friends Paints Store,"Friends Paints Store, Street Number 8, Link Rd, Partap Chowk, Bhagwan Nagar, Industrial Area- A, Ludhiana, Punjab 141001",Ludhiana,Punjab,India,094171 47613,NA
Mashal colour sales,"Mashal colour sales, Moti Nagar Rd, Moti Nagar, Ludhiana, Punjab 141014",Ludhiana,Punjab,India,NA,NA
Onkar Paint Store,"Onkar Paint Store, 156, Rani Jhansi Rd, Civil Lines, Ludhiana, Punjab 141001",Ludhiana,Punjab,India,NA,NA
Aggarwal Automotive Sales,"4076, Aggarwal Automotive Sales, Chandigarh Rd, Samrala Chowk, Near Allahabad Bank, Karam Colony, Beantpura, Shivajinagar, Ludhiana, Punjab 141008",Ludhiana,Punjab,India,098884 89766,NA
Pawan Paints & Chemicals,"Pawan Paints & Chemicals, Gurudwara Kalgi Dhar Road,, Field Gunj, Ludhiana, Punjab 141001",Ludhiana,Punjab,India,098889 11873,NA
Guru Nanak Paints & Building Material Store,"Guru Nanak Paints & Building Material Store, Dugri Road,, opposite king Spade, Ludhiana, Punjab 141002",Ludhiana,Punjab,India,099154 19132,NA
Rajveer Paint Store,"Rajveer Paint Store, New Model Town, Bagdi Park, Kochar Market, Ludhiana, Punjab 141002",Ludhiana,Punjab,India,093169 70499,NA
Punjab Paint Store,"Punjab Paint Store, Wall Singh Nagar Road, Shekwal Road, Singh Shaib Gurudwara, Bal Singh Nagar, Ludhiana, Punjab 141007",Ludhiana,Punjab,India,094185 67811,NA
K P Gupta and Sons,"K P Gupta and Sons, R.K. Steel, Cycle Market, Tagore Colony, Miller Ganj, Ludhiana, Punjab 141003",Ludhiana,Punjab,India,0161 503 6027,NA
Basant Hardware,"Basant Hardware, Prince Market, Prince Market Green Field, Walia Clinic, Green Field, Ludhiana, Punjab 141001",Ludhiana,Punjab,India,098726 44448,NA
Kanshi Ram Sham Lal & Co.,"Kanshi Ram Sham Lal & Co., K. S. Towers, 2788, Sheran Wala Gate, near Dr. Daljit Singh Eye Hospital, Amritsar, Punjab 143006",Amritsar,Punjab,India,097790 99201,NA
Simran Paints Corporation,"Simran Paints Corporation, DASHMESH NAGAR, TARN TARAN ROAD,, near NEW BHARAT PALACE, Amritsar, Punjab 143001",Amritsar,Punjab,India,098728 42977,NA
Royal Touch Paints,"Royal Touch Paints, Preet Nagar, Post Nangali, Fatehgarh Churian Road, Amritsar, Punjab 143006",Amritsar,Punjab,India,0183 271 1754,NA
Deco Paints,"Deco Paints, H No Hm-3, Ist Floor, Kapoor Cottage, Green Avenue, Housing Board Colony, Green Avenue, Amritsar, Punjab 143001",Amritsar,Punjab,India,0183 200 1921,NA
Deco Paints,"Deco Paints, Lawrence Road, Opposite Hotel, Lawrence, Amritsar, Punjab 143001",Amritsar,Punjab,India,098885 84436,NA
Arora paint &Hardware,"Arora paint &Hardware, 88ft Road, Chowk Tungwala, Majitha Road, Amritsar, Punjab 143001",Amritsar,Punjab,India,096533 43966,NA
Deco Paints Chemicals,"Deco Paints Chemicals, G T Road: Guru Ravi Dass Marg, Main Road, opposite Four Fields, Amritsar, Punjab 143021",Amritsar,Punjab,India,0183 258 5659,NA
Gati Pa─îðîers and Amritsar AK Hardware & Paint Shop,"Gati Pa─îðîers and Amritsar AK Hardware & Paint Shop, Maqbool Pura, Mehta Road, Amritsar, Punjab 143001",Amritsar,Punjab,India,NA,NA
Vicki Paints,"Vicki Paints, Near Hussainpura Chownk, Maharaja Ranjit Singh Nagar, Hasanpura Chowk, Hussainpura, Amritsar, Punjab 143001",Amritsar,Punjab,India,098880 66391,NA
R.K.Traders,"R.K.Traders, Tarn Taran Rd, Near Bawa Hospital, Chatiwind Gate, Guru Gobind Singh Colony, Himatpura, Amritsar, Punjab 143001",Amritsar,Punjab,India,098551 72728,NA
Krishna Hardware & Paints Store,"Krishna Hardware & Paints Store, Jalandhar - Nakodar Rd, Opposite Santpura Gurudwara, Near Guru Ravi Dass Chowk, Malind Nagar, New Model Town, Jalandhar, Punjab 144003",Jalandhar,Punjab,India,090414 87333,NA
Kohli Trading Company,"Kohli Trading Company, SD College Rd, Gobind Garh, Arjun Nagar, Jalandhar, Punjab 144004",Jalandhar,Punjab,India,0181 223 7041,NA
Dhir & Co,"Dhir & Co, New Railway Rd, opp. Laxmi Cinema, Bhai Ditt Singh Nagar, Dhan Mohalla, Jalandhar, Punjab 144001",Jalandhar,Punjab,India,098761 48139,NA
Ladha Singh Satnam Singh,"Ladha Singh Satnam Singh, Bazar Bansanwala, Bastian Adda,, Jalandhar, Punjab 144001",Jalandhar,Punjab,India,NA,NA
Delhi Paints Decor,"Delhi Paints Decor, Mithapur Rd, Near Easyday Club, Shiv Vihar, Makhan Shah Lubana Nagar, TTSL Ajit Nagar, Green Model Town, Jalandhar, Punjab 144003",Jalandhar,Punjab,India,098559 55559,NA
Chatri Mal Jawahar Lal,"Chatri Mal Jawahar Lal, Old Phagwara Rd, Jalandhar Cantt, Jalandhar, Punjab 144005",Jalandhar,Punjab,India,097791 87787,NA
Kabir Sales,"Kabir Sales, Model House, Jalandhar, Punjab 144003",Jalandhar,Punjab,India,NA,NA
Swag Trading Corporation,"Swag Trading Corporation, Opposit Galaxy Honda C/o Janta Tractor Garage, Jalandhar Bypass Road, near IOC Depot, Jalandhar, Punjab 144009",Jalandhar,Punjab,India,086994 84078,NA
Chopra Paints & Hardware Store,"Chopra Paints & Hardware Store, 584, Cool Road, New Jawahar Nagar, Jawahar Nagar, Jalandhar, Punjab 144003",Jalandhar,Punjab,India,098156 55548,NA
Simran Traders,"Simran Traders, Nari Niketan Rd, near Jalandhar, Malind Nagar, Avtar Nagar, Jalandhar, Punjab 144003",Jalandhar,Punjab,India,098141 05258,NA
New Singla Paint and Hardware Store,"New Singla Paint and Hardware Store, Chandni Chowk, Nabha Gate, Patiala, Punjab 147001",Patiala,Punjab,India,078376 68462,NA
Capital Paint Store,"Capital Paint Store, Sanauri adda, Patiala, Punjab 147001",Patiala,Punjab,India,094635 86159,NA
S. K. Traders,"S. K. Traders, near Lahori Gate, Lahori Gate, Patiala, Punjab 147001",Patiala,Punjab,India,099889 29214,NA
sahib dayal paint store,"sahib dayal paint store, #28,sai market near ambay apartmant, Patiala, Punjab 147001",Patiala,Punjab,India,NA,https://sahib-dayal-paint-store.business.site
Barnala Paint and Hardware Store,"Shop No. 4, Barnala Paint and Hardware Store, Sirhind Road, near Hemkunt Petrol Pump, Adalat Bazar, Patiala, Punjab 147001",Patiala,Punjab,India,NA,NA
Jodh Singh Balwinder Singh,"Jodh Singh Balwinder Singh, Nabha Gate, Patiala, Punjab 147001",Patiala,Punjab,India,094171 42200,NA
Gupta Trading Company,"Gupta Trading Company, Ram Nagar, NH 64, Patiala, Punjab 147001",Patiala,Punjab,India,098150 27800,NA
Shree Ganesh Enterprises,"Shree Ganesh Enterprises, Sanauri Adda, Markal Colony, Patiala, Punjab 147001",Patiala,Punjab,India,093168 83293,NA
Shadiram Shankur Dat,"Shadiram Shankur Dat, Sanauri Gate, Patiala, Punjab 147001",Patiala,Punjab,India,093175 30402,NA
NEW SINGLA PAINT AND HARDWEAR STORE,"NEW SINGLA PAINT AND HARDWEAR STORE, Rose Avenue, New Officers Colony, Patiala, Punjab 147001",Patiala,Punjab,India,NA,NA
NIPUN PAINT PRIVATE LIMITED,"NIPUN PAINT PRIVATE LIMITED, ADAMPUR, Railway Rd, JALANDHAR, Punjab 144102",Adampur,Punjab,India,098152 43442,NA
VISHAL PAINT STORE,"VISHAL PAINT STORE, ADAMPUR, Railway Rd, JALANDHAR, Punjab 144102",Adampur,Punjab,India,098150 31840,NA
LOVE PAINT STORE,"LOVE PAINT STORE, #1842, Main road, opposite to Karwal Gas Agency, Adampur, Punjab 144012",Adampur,Punjab,India,098773 44126,NA
Master Paint Store,"Master Paint Store, Bhogpur - Adampur Rd, Adampur, Punjab 144102",Adampur,Punjab,India,NA,NA
Khalsa Hardware & Paint Store,"Khalsa Hardware & Paint Store, Daroli Kalan, Punjab 144104",Adampur,Punjab,India,094643 36763,NA
Shri Vinayak Paints,"Shri Vinayak Paints, Near swastic tent house, Police Lines, Ajmer, Rajasthan 305001",Ajmer,Rajasthan,India,077378 51720,NA
Vanshika paints,"Vanshika paints, Nasirabad Rd, Nagra, Ajmer, Rajasthan 305001",Ajmer,Rajasthan,India,NA,NA
Chadausia Store,"Chadausia Store, Naya Bazar, Naya Bazaar, Ajmer, Rajasthan 305001",Ajmer,Rajasthan,India,094140 07068,NA
Rawat Traders,"Rawat Traders, Mayo Link Rd, Shiva Colony, Ajmer, Rajasthan 305001",Ajmer,Rajasthan,India,094145 93209,NA
Ak Paint And Chemicals,"Ak Paint And Chemicals, Shree Gurukrupa Apartment, Lal Bahadur Shastri Rd, Gangawadi, Ghatkopar West, Mumbai, Maharashtra 400086",Ajmer,Rajasthan,India,081070 93110,NA
Thakurdas Kutti ki Taal,"Thakurdas Kutti ki Taal, Hatundi Road, Makhupura Chauraha, Ajmer, Rajasthan",Ajmer,Rajasthan,India,094144 32648,NA
Shri Vinayak Paints,"Shri Vinayak Paints, Naya Bada, Police Line Rd, near Swastik Tent House, Ajmer, Rajasthan 305001",Ajmer,Rajasthan,India,077378 51720,NA
Kanhiyalal Khyaliram Jain,"Kanhiyalal Khyaliram Jain, Shri Mahaveer Market, Madar Gate, Ajmer, Rajasthan",Ajmer,Rajasthan,India,094143 14644,NA
Amit Marketing,"Amit Marketing, 172/22, Near Khwaji Gas Agency, Diggi Bazar, Ajmer, Rajasthan",Ajmer,Rajasthan,India,098293 31701,NA
Moin Paints,"Moin Paints, Khwaja Market Parbarpura Byepass, Jaipur Rd, Ajmer, Rajasthan 305002",Ajmer,Rajasthan,India,081070 27787,NA
Toshika Paint House,"Toshika Paint House, ÓñòÓñ¥Óñ▓ÓñÁÓñ¥Óñí, Óñ░ÓÑïÓñí, Óñ╣Óñ¥ÓñÑÓÑïÓñí, Rajasthan 302012",Jaipur,Rajasthan,India,NA,http://www.asianpaints.com
Gupta Paint Agencies,"Gupta Paint Agencies, 50, Tripolia Bazar, Gangori Bazaar, Tripolia Bazar, Pink City, Jaipur, Rajasthan 302002",Jaipur,Rajasthan,India,098293 64760,http://www.dulux.in
Ridhi Sidhi Paints,"Ridhi Sidhi Paints, Boring Rd, Jagannath Puri, Jhotwara, Jaipur, Rajasthan 302012",Jaipur,Rajasthan,India,0141 329 2068,NA
Taj Paints & Hardware,"Taj Paints & Hardware, Shop No:25, Near Kiran Nursing Home, E.S.I, Hospital Road, Jaipur, Rajasthan 302006",Jaipur,Rajasthan,India,098280 99202,NA
Shri shri salasar paints,"Shri shri salasar paints, Kamla nehru nagar ajmer road jaipur rajasthan Kamla nehru nagar, Ajmer Rd, Jaipur, Rajasthan 302020",Jaipur,Rajasthan,India,NA,https://shree-shree-salasar-paints.business.site
Salasar Paints,"Salasar Paints, Shop No.14,Kamla Nehru Nagar, Ajmer Rd, Jaipur, Rajasthan 302021",Jaipur,Rajasthan,India,NA,NA
Raj Paint,"Raj Paint, Ajmer Rd, Subhash Colony, Heerapura, Kamla Nehru Nagar Corner, Jaipur, Rajasthan 302026",Jaipur,Rajasthan,India,NA,NA
Shiv Shakti Paints & Sanitary,"Shiv Shakti Paints & Sanitary, D 429 B, -D Power House, Ajmer Rd, Jagdamba Nagar, Block D, Heerapura, Jaipur, Rajasthan 302021",Jaipur,Rajasthan,India,097821 62402,NA
Swami Paint House,"Swami Paint House, 117, Ajmer Rd, Madrampur, Ganpati Nagar, Jaipur, Rajasthan 302006",Jaipur,Rajasthan,India,097999 62928,NA
Indian Paints Colour Factory,"Indian Paints Colour Factory, 20, Ajmer Rd, Janta Nagar, Ram Rajpura Rakari, Jamuna Nagar, Sodala, Jaipur, Rajasthan 302006",Jaipur,Rajasthan,India,NA,NA
M.K. Enterprises,"M.K. Enterprises, Gobriya Bawadi Circel, Jhalawar Road, Kota, Rajasthan 324005",Kota,Rajasthan,India,098285 04283,NA
Ganpati Sales Corp.,"Ganpati Sales Corp., 8-H-5, Mahaveer Nagar III, Kota, 324005",Kota,Rajasthan,India,094600 77490,NA
Roshan Deep,"Roshan Deep, Balaji Market, Corner, Main Rd, Rangbari, Kota, Rajasthan 324005",Kota,Rajasthan,India,093140 60377,https://roshan-deep.business.site
Raj Hardware & Paints Trdg.,"Raj Hardware & Paints Trdg., Shop No-266, Motor Market, Vishavkarma Nagar, Kota, Rajasthan 324005",Kota,Rajasthan,India,080582 96258,NA
Nisha Tea - Assam Darjeeling Tea Wholeseller,"Nisha Tea - Assam Darjeeling Tea Wholeseller, 6-C-5, near teen batti, Mahaveer Nagar Extension, circle, Kota, Rajasthan 324009",Kota,Rajasthan,India,NA,NA
NAMA STORE,"NAMA STORE, Swami Vivekananda Nagar, Kota, Rajasthan 324010",Kota,Rajasthan,India,NA,NA
Dhriti Traders,"Dhriti Traders, Shop no-2, Rawatbhata Main Road,shivpura Opposite to UIT bus stop, Kota, Rajasthan 324010",Kota,Rajasthan,India,NA,NA
Gera Enterprises,"Gera Enterprises, Shop No-06, Patel Market, Near Teen Batti Circle, Kota, Rajasthan 324009",Kota,Rajasthan,India,096805 12758,NA
Riddhi sidhi Enterprises,"Shop no, Riddhi sidhi Enterprises, 28, Aawli Rd, Naya Gaon, Rojhari, Rajasthan 325003",Kota,Rajasthan,India,NA,NA
Ganapati Enterprises,"Ganapati Enterprises, 3-k-20, Dadabari Extension, Dadabari Extension, Dadabari, Kota, Rajasthan 324009",Kota,Rajasthan,India,NA,NA
Parshvanath Paints,"Parshvanath Paints, 1-Ka-19, Shop No 2, opposite Digambar Jain Temple, Sector 5, Hiran Magri, Udaipur, Rajasthan 313002",Udaipur,Rajasthan,India,NA,NA
Kings Colour,"Kings Colour, Shop 3, near Dai Mata Temple, Pannerio ki, Madri, Rajasthan 313001",Udaipur,Rajasthan,India,094610 76266,https://kingscolour.in
Kansai Nerolac Paints Ltd,"Kansai Nerolac Paints Ltd, Plot No. E1-229, RICO Industrial Area, Sukher, Behind Haveli Marble, Udaipur, Rajasthan",Udaipur,Rajasthan,India,NA,http://www.nerolac.com
New Mahesh Paint House,"New Mahesh Paint House, 559, Tekri Madri Link Rd, Nokha, Janakpuri, Gayariawas, Central Area, Udaipur, Rajasthan 313002",Udaipur,Rajasthan,India,097994 91619,NA
A. P. Enterprises,"A. P. Enterprises, 100, near Jain Transport, Shobhagpura, Udaipur, Rajasthan 313001",Udaipur,Rajasthan,India,NA,NA
Shree Parshwanath Enterprises,"Shree Parshwanath Enterprises, By Pass Chouraha, Pratap Nagar, Udaipur, Rajasthan 313001",Udaipur,Rajasthan,India,094141 64735,NA
Tobwala Buildcon,"Tobwala Buildcon, 100 Feet Road, Nava Ghar, Bhuwana, Udaipur, Rajasthan 313001",Udaipur,Rajasthan,India,094141 62420,NA
Talesra Paint House,"Talesra Paint House, City Station Rd, Toran Bawri, Jawahar Nagar, Ganesh Ghati, Udaipur, Rajasthan 313001",Udaipur,Rajasthan,India,094147 88789,NA
Modern Paint House,"Modern Paint House, Kanda Complex, Mewar Motor Link Rd, Kanda Business Center, Ganesh Ghati, Udaipur, Rajasthan 313001",Udaipur,Rajasthan,India,098281 44110,NA
Badala Paints And Hardware,"Badala Paints And Hardware, Ganapati Nagar, Udaipur, Rajasthan 313001",Udaipur,Rajasthan,India,NA,NA
Sanchuri interprises,"Sanchuri interprises, Circular Rd, Indra Nagar, Bharatpur, Rajasthan 321001",Bharatpur,Rajasthan,India,NA,NA
Singhal Asian Paints,"Singhal Asian Paints, Circular Rd, U.I.T Colony, Bharatpur, Rajasthan 321001",Bharatpur,Rajasthan,India,NA,NA
Jain Paints,"Jain Paints, Tara Mahendra Colony, Bharatpur, Rajasthan 321001",Bharatpur,Rajasthan,India,NA,NA
Om paint's store and pipes fitting,"Om paint's store and pipes fitting, Sony show room, Near ganga mandir budh ki hat om paint store gopaliya sadan, opposite Bharatpur, Rajasthan 321001",Bharatpur,Rajasthan,India,NA,NA
Krishna Paints Enterprises,"Krishna Paints Enterprises, kali bagichi chauraha, Kanni Gurjar Cir, in front of Arora Hospital, Gopalgarh, Bharatpur, Rajasthan 321001",Bharatpur,Rajasthan,India,085618 65801,NA
Agrawal And Brothers,"Agrawal And Brothers, Shri Ganga Maharani Ji Mandir, Bharatpur, Rajasthan",Bharatpur,Rajasthan,India,NA,NA
Agrawal Paints,"Agrawal Paints, Bada Mohalla, Pai Bagh, Bharatpur, Rajasthan 321001",Bharatpur,Rajasthan,India,NA,NA
kumar hardware stores,"kumar hardware stores, 20/2, Manickam St, Municipal Colony, Choolai, Erode, Tamil Nadu 638004",Chennai,Tamil Nadu,India,NA,NA
Pauls Chemical Corporation,"Pauls Chemical Corporation, 173, General Patters Road, Mount Road, General Patters Road, Chennai, Tamil Nadu 600002",Chennai,Tamil Nadu,India,098410 22338,http://www.dulux.in
M. Kanthaswamy Chetty & Co. Agency,"M. Kanthaswamy Chetty & Co. Agency, No. 39, Park Town, Nanayiappa Maistry St, Rattan Bazaar, George Town, Chennai, Tamil Nadu 600003",Chennai,Tamil Nadu,India,044 2535 0068,NA
Lakshmi Paints,"Lakshmi Paints, No. 62/1, Thayar Sahib Street, Mount Road, G.P. Road, Border Thottam, Triplicane, Chennai, Tamil Nadu 600002",Chennai,Tamil Nadu,India,091717 65378,NA
M.Kandaswamy Chetty & Company,"M.Kandaswamy Chetty & Company, 18, Venkatachala St, Rattan Bazaar, George Town, Chennai, Tamil Nadu 600003",Chennai,Tamil Nadu,India,098849 64387,NA
Asian Paint Dealers,"Asian Paint Dealers, 170, Rasappa Chetty St, Parrys, George Town, Chennai, Tamil Nadu 600003",Chennai,Tamil Nadu,India,NA,https://www.asianpaints.com
Suresh paints,"Suresh paints, 136, Swamy Naicken St, Chintadripet, Chennai, Tamil Nadu 600002",Chennai,Tamil Nadu,India,098402 62115,http://business.google.com
Hindustan Hardware & Paint Mart,"Hindustan Hardware & Paint Mart, New No.180, Old No.19, Rasappa Chetty St, Rattan Bazaar, George Town, Chennai, Tamil Nadu 600003",Chennai,Tamil Nadu,India,044 2535 5080,NA
Asian Paints Colour World Crescent Hardware Centre,"Asian Paints Colour World Crescent Hardware Centre, 60, Natesan Road, Salegramam, Mirsahibpet, Triplicane, Chennai, Tamil Nadu 600005",Chennai,Tamil Nadu,India,089254 21247,NA
jai paints,"jai paints, 22, Mangappan St, Sowcarpet, Elephant Gate, George Town, Chennai, Tamil Nadu 600079",Chennai,Tamil Nadu,India,098410 54386,NA
Sri Sakthi Hardwares,"Sri Sakthi Hardwares, 921, Avinashi Rd, Pudur, P N Palayam, Tamil Nadu 641037",Coimbatore,Tamil Nadu,India,0422 222 1778,NA
ROALUX PAINTS,"ROALUX PAINTS, 150, Vysial St, Kempatty Colony, Town Hall, Coimbatore, Tamil Nadu 641001",Coimbatore,Tamil Nadu,India,0422 238 1197,http://business.google.com
vaanamaamalai paints,"vaanamaamalai paints, no.205, NSR Rd, Saibaba Colony, Coimbatore, Tamil Nadu 641011",Coimbatore,Tamil Nadu,India,095974 00266,https://vaanamaamalai-paints.business.site
Sri Vasavi Paints,"Sri Vasavi Paints, Opposite Lakshmi Mills Bus Stop 1053, Bharathiyar Road, P N Palayam, Bharathiyar Road, Coimbatore, Tamil Nadu 641037",Coimbatore,Tamil Nadu,India,0422 221 0894,NA
Paint A Point and Hardware,"Paint A Point and Hardware, 55, Ramachandra Rd, R S Puram West, Coimbatore, Tamil Nadu 641002",Coimbatore,Tamil Nadu,India,0422 436 6456,NA
Amutha| Plumber in coimbatore| best plumbing works contractors services in coimbatore.,"Amutha| Plumber in coimbatore| best plumbing works contractors services in coimbatore., :213, Bharathiyar Road, Near Suriya Hospital, Ganapathy, Anna Nagar, Coimbatore, Tamil Nadu 641006",Coimbatore,Tamil Nadu,India,095663 89890,NA
NIPPON PAINT DEALERS In ganapathy,"NIPPON PAINT DEALERS In ganapathy, Vijayalakshmi Layout 1st St, Ganapathypudur, Coimbatore, Tamil Nadu 641006",Coimbatore,Tamil Nadu,India,095007 06319,NA
New India Paint,"New India Paint, NH209, ATT Colony, Gopalapuram, Coimbatore, Tamil Nadu 641018",Coimbatore,Tamil Nadu,India,NA,NA
Radha And Chalam,"31/29, Radha And Chalam, Vysial Street,Oppanakara Street, Near B-1 Police Station, Prakasam, Town Hall, Coimbatore, Tamil Nadu 641001",Coimbatore,Tamil Nadu,India,0422 239 0448,NA
Shanthi paint corporation,"Shanthi paint corporation, No:213, Bharathiyar Road, Near Suriya Hospital, Anna Nagar, Ganapathy,, Coimbato, Coimbatore, Tamil Nadu 641006",Coimbatore,Tamil Nadu,India,090039 57011,NA
Sri Meenakshi Agencies,"Sri Meenakshi Agencies, DD Main Rd, Pethaniapuram 2, Arappalayam, Gnanavolivupuram, Tamil Nadu 625016",Madurai,Tamil Nadu,India,087544 03888,NA
Jai Ganesh Traders,"Jai Ganesh Traders, Priyasamy Nagar, Tamil Nadu 625012",Madurai,Tamil Nadu,India,098434 60472,NA
Super deluxe hardware mart,"Super deluxe hardware mart, Alanganallur Main Road, Sikkandar Savadi, Koodal Nagar, Madurai, Tamil Nadu 625018",Madurai,Tamil Nadu,India,NA,NA
Sri Sankareswari Traders,"Sri Sankareswari Traders, 101, MMC Colony Bus Stop, Sakthirama Complex, Avaniyapuram Main Road, Villapuram, Madurai, Tamil Nadu 625012",Madurai,Tamil Nadu,India,095439 22755,NA
Sri Madurai Meenakshi Agencies,"Sri Madurai Meenakshi Agencies, No.30, Swamy Sannathi Street, Madurai, Tamil Nadu 625001",Madurai,Tamil Nadu,India,098433 91791,NA
Meenakshi Sundereshwam Paints,"Meenakshi Sundereshwam Paints, MDR227, Sikkandar Savadi, Koodal Nagar, Madurai, Tamil Nadu 625018",Madurai,Tamil Nadu,India,NA,NA
Nachiyaar Paints,"Nachiyaar Paints, 4/271, Sourashtrapuram, Mandure, Vandiyur, Madurai, Tamil Nadu 625020",Madurai,Tamil Nadu,India,NA,NA
Harini Paint's & Hardware's,"Harini Paint's & Hardware's, Ashok Nagar, Tamil Nadu 625016",Madurai,Tamil Nadu,India,NA,NA
Sri Jayam Motors,"Sri Jayam Motors, Thathaneri, Tamil Nadu 625018",Madurai,Tamil Nadu,India,NA,NA
BJN Paints India Limited,"No. 146, BJN Paints India Limited, NSK Rd, Velmurugan Nagar, Namachivaya Nagar, Nahru Nagar, Tamil Nadu 625010",Madurai,Tamil Nadu,India,0452 420 0829,NA
"Saravana Hardware Stores (ASIAN PAINTS, fosroc, zydex, godrej locks,NIPPON PAINTS)","Saravana Hardware Stores (ASIAN PAINTS, fosroc, zydex, godrej locks,NIPPON PAINTS), 234, 235, Mailamchandai Gandhi Market, Mailamchandai, Tiruchirappalli, Tamil Nadu 620008",Tiruchirappalli,Tamil Nadu,India,0431 270 9851,https://saravana-hardware-stores.business.site
Malugu business,"Malugu business, 3/330, Punganur, Tiruchirappalli, Tamil Nadu 620009",Tiruchirappalli,Tamil Nadu,India,NA,NA
Annai Tinkering workshop,"Annai Tinkering workshop, Trichy Main Rd, Killiyanallur, Tamil Nadu 621213",Tiruchirappalli,Tamil Nadu,India,NA,NA
"Addisons Paints & Chemicals (A Division of Simpson & Co Ltd., )","Addisons Paints & Chemicals (A Division of Simpson & Co Ltd., ), Gundur, Tamil Nadu 620007",Tiruchirappalli,Tamil Nadu,India,0431 266 0091,NA
Pinturaa Colour Zone,"Pinturaa Colour Zone, No. 55, St. Mary Complex, Ground Floor, Promenade Road, Cantonment, Melaputhur, Tiruchirappalli, Tamil Nadu 620001",Tiruchirappalli,Tamil Nadu,India,098946 05674,NA
Vinayaka Paints," Bus Stop, Salai Road , 15/8, Big Sowrastra Street Kadai Veedhi, Woraiyur, Tiruchirappalli, Tamil Nadu 620003",Tiruchirappalli,Tamil Nadu,India,0431 276 0267,NA
V.Chandra Prakasa Nadar Sons,"V.Chandra Prakasa Nadar Sons, No. 6, Chinna Kadai St, Devathanam, Tiruchirappalli, Tamil Nadu 620002",Tiruchirappalli,Tamil Nadu,India,0431 270 4404,NA
SDV Paints & Automobiles,"SDV Paints & Automobiles, 28/28, Edumalai Rd, Manachanallur, Tamil Nadu 621005",Tiruchirappalli,Tamil Nadu,India,NA,NA
Om Sri Hardwares,"Om Sri Hardwares, 76/1, W.B Road, opp. Ibrahim Park, Tiruchirappalli, Tamil Nadu 620008",Tiruchirappalli,Tamil Nadu,India,099527 66122,https://om-sri-hardwares.business.site
Sri Preethi Paints,"Shop No, Sri Preethi Paints, 73-A, Salai Rd, near Hotel Kanappa, Thillai Nagar, Tiruchirappalli, Tamil Nadu 620018",Tiruchirappalli,Tamil Nadu,India,0431 276 0768,NA
Kalasri Agencies,"Kalasri Agencies, kurunji nagar venkatachalapuram sattur, Tamil Nadu",Tirunelveli,Tamil Nadu,India,NA,NA
Sri Andal Traders,"Sri Andal Traders, 30, Swami Nellaiappar High Rd, Sripuram, Thirunagar, Tirunelveli Town, Tirunelveli, Tamil Nadu 627001",Tirunelveli,Tamil Nadu,India,094433 57525,NA
HAJA HARDWARES,"HAJA HARDWARES, 56, High Road, Tirunelveli Junction, Tirunelveli, 627001",Tirunelveli,Tamil Nadu,India,0462 233 4251,NA
SELVA KUMARAN STORES,"SELVA KUMARAN STORES, 988 a mangammal salai, Arunachalapuram A Colony, KTC Nagar, Tirunelveli, Tamil Nadu 627011",Tirunelveli,Tamil Nadu,India,098652 81188,NA
T.P. KANNU&CO,"T.P. KANNU&CO, 26 D/2, S.N. High Road, Tirunelveli, Tamil Nadu 627001",Tirunelveli,Tamil Nadu,India,0462 232 2117,NA
R.R Paints & Hardwares,"R.R Paints & Hardwares, No.1 Therkku Mohideen Pallivasal Street, Melapalayam, Tirunelveli, Tamil Nadu 627005",Tirunelveli,Tamil Nadu,India,NA,NA
Nova traders,"Nova traders, SH 40, Rahmath Nagar, Palayamkottai, Tirunelveli, Tamil Nadu 627002",Tirunelveli,Tamil Nadu,India,NA,NA
KARTHIKEYAN STORE,"KARTHIKEYAN STORE, 118, Sivanthipatti Rd, Anbunagar Extension, Thiyagaraja Nagar, Tirunelveli, Tamil Nadu 627007",Tirunelveli,Tamil Nadu,India,098659 51188,NA
Lavanya Store,"Lavanya Store, St. John's College Road, Perinba St, Military Line, Palayamkottai, Tirunelveli, Tamil Nadu 627002",Tirunelveli,Tamil Nadu,India,098949 99430,https://lavanya-store-paint-store.business.site
KARTHIKEYAN ENTERPRISES,"KARTHIKEYAN ENTERPRISES, 93A/1 Bye Pass Raod, Vannarpettai, Tirunelveli, Tamil Nadu 627003",Tirunelveli,Tamil Nadu,India,094434 56071,NA
Suganya Hardwares,"Suganya Hardwares, 344.B, Yercaud Main Rd, KK Nagar, Salem, Tamil Nadu 636008",Salem,Tamil Nadu,India,098651 83143,NA
Salem Paints,"Salem Paints, 1, Senthil Plaza, Junction Main Rd, opp. Sona College, Salem, Tamil Nadu 636005",Salem,Tamil Nadu,India,097510 70719,NA
LAKSHMI PAINTS,"LAKSHMI PAINTS, jayarathna complex, Omalur main road, five road, Salem, Tamil Nadu 636004",Salem,Tamil Nadu,India,094432 33883,NA
Bharath Paints,"Bharath Paints, Junction Main Rd, Subramania Nagar, Salem, Tamil Nadu 636005",Salem,Tamil Nadu,India,099420 10117,NA
VKM Trading - Berger Paints Store,"VKM Trading - Berger Paints Store, Berger Paints Dealers in, P M P Nagar, Kondalampatti, Salem, Tamil Nadu 636010",Salem,Tamil Nadu,India,NA,NA
Varnam Paints,"Varnam Paints, 40/10, K.M. Nagar, Ayothiyapattinam, Harur Main Rd, Salem, Tamil Nadu 636103",Salem,Tamil Nadu,India,098943 35285,NA
Asian Paints Limited,"Asian Paints Limited, 2, Suramangalam Main Rd, Subramania Nagar, Suramangalam, Salem, Tamil Nadu 636005",Salem,Tamil Nadu,India,NA,https://www.asianpaints.com
J.K.Paints,"J.K.Paints, 3/54, Kamala Complex, Meyyanur Road, &, Five Roads, Salem, Tamil Nadu 636004",Salem,Tamil Nadu,India,098420 21808,NA
Asian Paints EzyColour AYYAPPA HARDWARES,"Asian Paints EzyColour AYYAPPA HARDWARES, NEXT TO HIGHWAYS OFFICE OPP MSV MAHAL STEEL PLANT, MAIN, ROAD, Jaheer Reddy Patti, Salem, Tamil Nadu 636302",Salem,Tamil Nadu,India,094872 10194,https://www.asianpaints.com
Pandiyan Paints,"Pandiyan Paints, Omalur Main Rd, SIDCO Industrial Estate, Narasothipatti, Salem, Tamil Nadu 636302",Salem,Tamil Nadu,India,NA,NA
Sankalp Enterprises,"Sankalp Enterprises, Bank St, Troop Bazaar, Abids, Hyderabad, Telangana 500001",Hyderabad,Telangana,India,090145 72777,http://www.sankalpenterprises.in
Home Needs asian paints,"Home Needs asian paints, 13-3-821, Jiyaguda Road, Sree Sai Nagar, Ranganatha Nagar, Ziaguda, Hyderabad, Telangana 500006",Hyderabad,Telangana,India,NA,https://www.asianpaints.com
Sri Sai Srinivasa Paints & Hardware,"Sri Sai Srinivasa Paints & Hardware, Srt 234, A P Super Hospital, Rtc X Roads, Rtc X Roads, Hyderabad, Telangana 500020",Hyderabad,Telangana,India,040 5562 7167,NA
Royal Hardware Sanitary Paints,"Royal Hardware Sanitary Paints, # 4-2-1060, Ramkoti X Road ,Hyderabad, opp. Majestic Cafe, Hyderabad, Telangana 500029",Hyderabad,Telangana,India,088019 47417,NA
Bhaskar Enamel Industries,"Bhaskar Enamel Industries, 5-2-926, opposite Godown, Osmangunj, Jam Bagh, Hyderabad, Telangana 500012",Hyderabad,Telangana,India,040 2461 6767,NA
MBK Paints & Hardware,"Plot No. 29, MBK Paints & Hardware, P&T Colony, Sun City, Hyderabad, Telangana 500086",Hyderabad,Telangana,India,NA,NA
Vaishnavi Enterprises.,"Vaishnavi Enterprises., 15-5-199, Osmanshai, Gowliguda, Hyderabad., Hyderabad, Telangana 500012",Hyderabad,Telangana,India,NA,NA
Hi - Tech Colours,"Hi - Tech Colours, Shop No 19-1-876/4, Chowrastha, A P, Bahadurpura, Hyderabad, Telangana 500264",Hyderabad,Telangana,India,040 2446 1951,NA
Gopi Electrical & Hardware Paints & Sanitary,"Gopi Electrical & Hardware Paints & Sanitary, #2-4-13/3, Upper Pally,pvnr ex piller no 176, Rajendranagar mandal, Hyderabad, Telangana 500048",Hyderabad,Telangana,India,099089 99090,NA
Shakti Paints & Chemicals,"Shakti Paints & Chemicals, 24/1/B, Gandhinagar, Gandhi Nagar Industrial Area, Kavadiguda, Hyderabad, Telangana 500037",Hyderabad,Telangana,India,040 2307 3380,NA
Ch. Sridhar Arts (Rajart),"Ch. Sridhar Arts (Rajart), 11-25-220/1, Auto Nagar, Kothawada, Warangal, Telangana 506002",Warangal,Telangana,India,NA,NA
Hanuman Enterprises,"Hanuman Enterprises, Nayeem Nagar, Lashkar Singaram, Gopalapuram, Hanamkonda, Telangana 506009",Warangal,Telangana,India,NA,NA
Thirumala Paints,"Thirumala Paints, Near Desaipet Road,11-24/343, Desaipet Rd, Pochamma Maidan, Warangal, Telangana 506002",Warangal,Telangana,India,093940 23810,NA
Balaji Paints,"Balaji Paints, House No-24-7-215 Main Road Beside REC Petrol Pump, Revenue Colony, Prakashreddypet, Hanamkonda, Telangana 506003",Warangal,Telangana,India,099498 92633,NA
Reddy Arts and Paints,"Reddy Arts and Paints, 4-4-192, NH163, Kothur Jenda, Gandhi Nagar, Reddy Colony, Hanamkonda, Telangana 506001",Warangal,Telangana,India,NA,NA
Bhadrakali Paints,"H.No. 3-14-665, Bhadrakali Paints, Kakatiya University Bypass Rd, Pegadapally, Dabbala, Hanuman Nagar, Hanamkonda, Telangana 506009",Warangal,Telangana,India,NA,NA
Ravindra Paints Industries,"Ravindra Paints Industries, 4-6-126, Reddy Colony, Reddy Colony, Hanamkonda, Telangana 506011",Warangal,Telangana,India,0870 245 1757,NA
Sri Veerabhadra Paints,"Sri Veerabhadra Paints, 2, Gaurav St, Lashkar Singaram, Naim Nagar, Hanamkonda, Telangana 506009",Warangal,Telangana,India,098493 39488,NA
Kodakandla Romaniah Paints & Hardware,"H.No.1-4-96, Kodakandla Romaniah Paints & Hardware, Main Rd, Rahamatnagar, Kazipet, Telangana 506003",Warangal,Telangana,India,098497 27278,NA
Balaji paints,"Balaji paints, near vidyodaya high school, Huzurabad - Jammikunta Rd, Jammikunta, 505122",Warangal,Telangana,India,NA,NA
M/s. G.P. Hardware,"Shop No. 46/88A, M/s. G.P. Hardware, Near, Gowri Gopal Hospital Rd, Budhawara Peta, Kurnool, Andhra Pradesh 518002",Ālampur,Telangana,India,093979 53110,NA
M.N. Paints Hardware Sanitary,"M.N. Paints Hardware Sanitary, Ram Rahim Nagar, Near NH-7, Kurnool, Andhra Pradesh 518003",Ālampur,Telangana,India,097013 02929,NA
A1-Safa hardware paints & sanitary,"A1-Safa hardware paints & sanitary, Ambedkar Nagar, Balaji Nagar, Kurnool, Andhra Pradesh 518006",Ālampur,Telangana,India,NA,NA
Varalakshmi Paints & Hardware,"Varalakshmi Paints & Hardware, D.No. 87/1362/C/4-A, Plot No. 4, Nandikotkur Rd, opp. Santhoshi Kalyana Mandapam, Chandrasekhar Nagar, Kurnool, Andhra Pradesh 518002",Ālampur,Telangana,India,094409 24768,NA
M/s. Jaleel Paints & Hardware,"M/s. Jaleel Paints & Hardware, S. No. 25, A.P.S.P. Complex, Bellary Rd, Kurnool, Andhra Pradesh 518003",Ālampur,Telangana,India,098486 26094,https://ms-jaleel-paints-hardware.business.site
Apex Enterprises,"Apex Enterprises, 26/191/1, Chittari St, Mohalla Huzur Mett, Badi Beedh, Kurnool, Andhra Pradesh 518001",Ālampur,Telangana,India,096523 82456,https://apexenterprises-paintstore.business.site
"Y. Lakshmi Devamma Cement, Paints & Hardware","s.no, Y. Lakshmi Devamma Cement, Paints & Hardware, 79-114-1, Krishna Reddy Nagar, New Krishna Nagar, Kurnool, Andhra Pradesh 518002",Ālampur,Telangana,India,094400 91918,NA
S.A. Gaffar & Sons,"S.A. Gaffar & Sons, Maddur Nagar, Kurnool, Andhra Pradesh 518002",Ālampur,Telangana,India,091775 75074,NA
All Tawakkal Sanitary Hardware & Paints,"All Tawakkal Sanitary Hardware & Paints, Roja Nagar, Ballary Road, Kurnool, Andhra Pradesh 518003",Ālampur,Telangana,India,090908 57806,NA
Fakhruddin Kurban Husen Hardware & Paints,"Fakhruddin Kurban Husen Hardware & Paints, 18-138, Nehru Rd, Bongul Bazar, Marwari Street, Kurnool, Andhra Pradesh 518001",Ālampur,Telangana,India,095737 37603,NA
Prince Paint Sanitary & Hardware Store,"Prince Paint Sanitary & Hardware Store, Lakhnawali Road, Surajpur, Uttar Pradesh 201306",Greater Noida,Uttar Pradesh,India,099719 01818,NA
Prince Paint Sanitary & Hardware Store,"Prince Paint Sanitary & Hardware Store, Side-C, Debla, Uttar Pradesh 201306",Greater Noida,Uttar Pradesh,India,099719 01818,NA
Rajnish Paint & Hardware,"Rajnish Paint & Hardware, Shop No. 1, Basement, Shri Amrit Plaza, Amritpuram Market, Gamma - 1, Near Pragyan School, Jagat Farm, Greater Noida, Uttar Pradesh 201306",Greater Noida,Uttar Pradesh,India,099996 48511,NA
Nandani Paints & Hardware Store,"Nandani Paints & Hardware Store, Near Lakhnawali More,Main dadri road, Surajpur, opp. Mansha Devi Mandir, Greater Noida, Uttar Pradesh 201306",Greater Noida,Uttar Pradesh,India,099105 66504,NA
Rajnish Paints And Hardware,"Rajnish Paints And Hardware, Amritpuram, Block E, Chandila, Gamma 1, Greater Noida, Uttar Pradesh 201310",Greater Noida,Uttar Pradesh,India,097184 03338,NA
Naval Paints And Hardware,"Naval Paints And Hardware, Tugalpur, Greater Noida, Uttar Pradesh 201310",Greater Noida,Uttar Pradesh,India,NA,NA
KANAK PAINTS,"KANAK PAINTS, Sector MU 1 Rd, near Shahid Park, Omicron I, Sector MU 1, Greater Noida, Uttar Pradesh 201307",Greater Noida,Uttar Pradesh,India,099119 11390,NA
Sumit Paint House,"Sumit Paint House, Opposite Janhit College Chain Sukh Market Tugalpur, Greater Noida, Uttar Pradesh 201305",Greater Noida,Uttar Pradesh,India,085108 06281,NA
"Bajrang Paints,Hardware & Sanitary Store","Bajrang Paints,Hardware & Sanitary Store, Village Achher,Sector pi,1, Greater Noida, Uttar Pradesh 201308",Greater Noida,Uttar Pradesh,India,097172 01172,NA
om sai sanitary paint and hardware,"om sai sanitary paint and hardware, Bhagat marke tugalpur, Greater Noida, Uttar Pradesh 201306",Greater Noida,Uttar Pradesh,India,099902 04100,NA
Bhatia Paints & Hardware,"272, Bhatia Paints & Hardware, Z-1, Barra-1, Barra World Bank, Barra, Kanpur, Uttar Pradesh 208027",Kanpur,Uttar Pradesh,India,094155 35356,NA
Yadav paints & Hardware,"Yadav paints & Hardware, Lal Banglal, near IVP Petrol Pump Harjindanagar, Chakeri, Kanpur, Uttar Pradesh 208008",Kanpur,Uttar Pradesh,India,NA,NA
Prakash Agencies,"Prakash Agencies, 1/1, Nai Sadak, Collectorganj, Kanpur, Uttar Pradesh 208001",Kanpur,Uttar Pradesh,India,094150 45245,NA
Jyoti Enterprises,"Jyoti Enterprises, Chandra Nagar Near Charrari Lalbangla, Kanpur, Uttar Pradesh 208007",Kanpur,Uttar Pradesh,India,099566 82403,http://business.google.com
Rajendra Paints,"Rajendra Paints, 95/94, Nai Sarak Road, Munna Lal Street, Talaq Mahal, Al Zahra, Colonelganj, Kanpur, Uttar Pradesh 208001",Kanpur,Uttar Pradesh,India,098387 21808,NA
Nishat Paint,"Nishat Paint, 63/10, Gadaria Mohal, Near Apdara Cinema, Mall Road, Kanpur, Uttar Pradesh 208001",Kanpur,Uttar Pradesh,India,093052 35884,NA
Vinod And Company,"48/292, Vinod And Company, Hafsa Bint Umar St, Lathi Mohal, Lathi Mohal Tiraha, General Ganj, Kanpur, Uttar Pradesh 208001",Kanpur,Uttar Pradesh,India,NA,NA
Self,"Self, Sanjay Gandhi Nagar, 8858306268, Kanpur, Uttar Pradesh 208021",Kanpur,Uttar Pradesh,India,NA,NA
Rainbow Colour Company,"Rainbow Colour Company, 26.468593, 80.326924, 108/159, P Rd, Colonelganj, Kanpur, Uttar Pradesh 208001",Kanpur,Uttar Pradesh,India,099367 05000,NA
Colour World,"Colour World, central Plaza gopinath puram uannao, Gangaghat, Uttar Pradesh",Kanpur,Uttar Pradesh,India,NA,NA
RAINBOW AUTO COLOR LAB,"RAINBOW AUTO COLOR LAB, Captain Aditya Mishra Marg, Liberty Colony Park, Sarvodaya Nagar, Indira Nagar, Lucknow, Uttar Pradesh 226016",Lucknow,Uttar Pradesh,India,NA,NA
Abhilasha Enterprises,"Abhilasha Enterprises, 12-A, Station Road, Shivaji Marg, Station Road, Near Hero Honda, Shivaji Marg, Lucknow, Uttar Pradesh 226018",Lucknow,Uttar Pradesh,India,092362 60668,NA
Bajpai Paints Store,"Bajpai Paints Store, 55/4, 55/4 Gautam Buddh Marg, Yadav Complex, Gautam Budh Marg, Lucknow, Uttar Pradesh 226018",Lucknow,Uttar Pradesh,India,094151 59760,NA
Plaza Paint Mobile Shop,"Plaza Paint Mobile Shop, Shop No-9,Cantt Chourastha, Sadar Bazaar, Lucknow, Uttar Pradesh 226002",Lucknow,Uttar Pradesh,India,095594 31024,NA
Goel Brothers,"Goel Brothers, 78, Gautam Budh Marg, Gautam Budh Marg, Bansmandi, Aminabad, Lucknow, Uttar Pradesh 226018",Lucknow,Uttar Pradesh,India,0522 395 1472,NA
Mohan Lime Store,"Mohan Lime Store, Subhash Marg, Tedhi Bazar, Dugawan, Kundari Rakabganj, Lucknow, Uttar Pradesh 226003",Lucknow,Uttar Pradesh,India,098396 67221,NA
R K Paint,"R K Paint, Gola Bazar, Gola Bazar Sadar, Shiv Mandir, Sadar, Lucknow, Uttar Pradesh 226002",Lucknow,Uttar Pradesh,India,093896 44273,NA
Goyal Banbhu Asian Paints,"Goyal Banbhu Asian Paints, 35/3, Yadav Market, Gautam Budh Marg, Lucknow, Uttar Pradesh 226018",Lucknow,Uttar Pradesh,India,0522 325 1422,NA
Sarswati Enterprises,"Sarswati Enterprises, Ramashray Purwa, Khargapur, Lucknow, Uttar Pradesh 226010",Lucknow,Uttar Pradesh,India,NA,NA
B.K Enterprises,"B.K Enterprises, opposite primary school, Awadhpuri Khand-2, Khargapur, Gomti Nagar, Lucknow, Uttar Pradesh 226010",Lucknow,Uttar Pradesh,India,098389 51505,NA
Raj Paints,"Raj Paints, Maruti Estate Rd, Albatiya, Infront Prem Vatika, Gular Ka Nagla, Shahganj, Agra, Uttar Pradesh 282010",Agra,Uttar Pradesh,India,097611 71551,NA
R.D.A Paints World,"R.D.A Paints World, naripura, Dhanauli, Agra, Uttar Pradesh 282008",Agra,Uttar Pradesh,India,NA,NA
Shree Ram Colours,"Shree Ram Colours, Amba Prasad Rd, Opposite Sabji Mandi, Bodla, Lohamandi, Agra, Uttar Pradesh 282007",Agra,Uttar Pradesh,India,091528 61877,NA
Radhika Paints,"Radhika Paints, Kharai Panna Place Ke Samne,, Agra Shamshabad Raja Kherah Marg, Chamroli Mod, Uttar Pradesh 282001",Agra,Uttar Pradesh,India,097585 55779,NA
Shri Ram ji paint house,"Shri Ram ji paint house, Bundu Katra, Agra Cantt, Defence Estate, Agra, Uttar Pradesh 282001",Agra,Uttar Pradesh,India,NA,NA
Jai Durge Maa Paints House,"Shop No.109 MIG, Jai Durge Maa Paints House, Jain Mandir Road, Bodla Road, Sector 6F, Sector 6, Avas Vikas Colony, Lohamandi, Agra, Uttar Pradesh 282004",Agra,Uttar Pradesh,India,098972 95107,NA
Vishal Paint Store,"Shop No.20/20, Vishal Paint Store, Ratan Muni Rd , Lohamandi Rd, Jaipur House Market, Sirki Mandi, Lohamandi, Agra, Uttar Pradesh 282010",Agra,Uttar Pradesh,India,098975 15487,NA
New Goyal Paint Mart,"Shop No. 26,27, New Goyal Paint Mart, Maa Durga Complex, Ratan Muni Rd, Lohamandi Chauraha, Nauvasta, Lohamandi, Agra, Uttar Pradesh 282002",Agra,Uttar Pradesh,India,074090 68584,NA
Shanker Paint Mart,"Shanker Paint Mart, 15/28, Chouraha Pashiya Rd, Soron Katra, Kothi Meena Bazaar, Shahganj, Agra, Uttar Pradesh 282010",Agra,Uttar Pradesh,India,092591 86759,NA
P.C. Paint House,"Shop No.3, P.C. Paint House, 225, Rui Ki Mandi, Indra Colony, Shahganj, Agra, Uttar Pradesh 282010",Agra,Uttar Pradesh,India,089583 10648,NA
M.S. Hardware And Paint,"M.S. Hardware And Paint, Rohta Road, Meerut, Uttar Pradesh 250002",Meerut,Uttar Pradesh,India,089090 37677,NA
Singhal paints and hardware store,"Singhal paints and hardware store, Jagriti Vihar Rd, C Block, Sector 3, Tejgarhi, Meerut, Uttar Pradesh 250004",Meerut,Uttar Pradesh,India,NA,NA
Singhal Paints,"Singhal Paints, 30/3, Jagrati Vihar, Meerut, Uttar Pradesh 250004",Meerut,Uttar Pradesh,India,098977 61090,http://www.singhalpaints.com
Rahul Paints,"Rahul Paints, Lalla Pur, Meerut, Uttar Pradesh 250002",Meerut,Uttar Pradesh,India,096396 78905,NA
Raj Paint and Hardware Store,"Raj Paint and Hardware Store, 492/3, New Sadak, Shastri Nagar, Meerut, Uttar Pradesh 250001",Meerut,Uttar Pradesh,India,089791 54344,NA
Mahaveer Paints,"Mahaveer Paints, Roorkee Road, Meerut, 250001",Meerut,Uttar Pradesh,India,097606 92026,NA
Pundir Paints,"Pundir Paints, Roorkee Road, Meerut, Uttar Pradesh 250001",Meerut,Uttar Pradesh,India,099274 51224,NA
Neha Paints And Hardware,"Neha Paints And Hardware, Kaserukhera, Meerut, Uttar Pradesh 250001",Meerut,Uttar Pradesh,India,096752 10280,NA
M/s Laxmi Paints,"M/s Laxmi Paints, 339/4, Gol Mandir Rd, near Zaidi society, Zaidi Nagar, Shastri Nagar, Meerut, Uttar Pradesh 250002",Meerut,Uttar Pradesh,India,NA,NA
Uttam Traders,"Uttam Traders, Pillokhari Rd, Shyam Nagar, Masud Nagar, Meerut, Uttar Pradesh 250002",Meerut,Uttar Pradesh,India,NA,NA
Rangshala,"Rangshala, Shop No.D-59/103, Smith School Road, Sigra , Besides Purvika Hotel, Varanasi, Uttar Pradesh 221010",Varanasi,Uttar Pradesh,India,094156 97027,NA
Krishna Agencies,"Krishna Agencies, Bhojubeer,Sabzi Mandi, Varanasi, Uttar Pradesh 221002",Varanasi,Uttar Pradesh,India,NA,NA
New Shri Ram Paints,"New Shri Ram Paints, Shivpur Bypass Rd, Shivpur, Varanasi, Uttar Pradesh 221003",Varanasi,Uttar Pradesh,India,083549 62082,NA
Pawansut Paints,"Pawansut Paints, Raja Moti Chand Rd, Manduwadih Bazar, Kanchan Vihar Colony, Manduwadih, Varanasi, Uttar Pradesh 221103",Varanasi,Uttar Pradesh,India,090442 56290,NA
Neeraj Paints & Hardware,"Neeraj Paints & Hardware, near Stte Bank Of India, Narayan Park, Shivpur, Varanasi, Uttar Pradesh 221003",Varanasi,Uttar Pradesh,India,099359 56764,NA
Chaurasia Paint Store,"S-8/252,A-K, Chaurasia Paint Store, Hukulganj Rd, Near To Pandeypur Chouraha, Pandeypur, Gola Purwa, Varanasi, Uttar Pradesh 221002",Varanasi,Uttar Pradesh,India,098390 75545,NA
Chaurasia Paint Store,"Chaurasia Paint Store, S-8/256-2A-1, Premchandra Nagar Colony Rd, Hukulganj, Pandeypur, Varanasi, Uttar Pradesh 221002",Varanasi,Uttar Pradesh,India,098380 45545,NA
Avas Sanitary & Paints Store,"Avas Sanitary & Paints Store, Mahmoorganj Sigra Road, Varanasi, Uttar Pradesh 221010",Varanasi,Uttar Pradesh,India,093052 88350,NA
SANJAY PAINTS,"SANJAY PAINTS, J 15/65 D-3, Doshipura, Chaukaghat, Varanasi, Uttar Pradesh 221001",Varanasi,Uttar Pradesh,India,NA,NA
Shiv Paints,"Shiv Paints, Nadesar Police Chowki Ke Bagal Main, Varanasi, Uttar Pradesh 221002",Varanasi,Uttar Pradesh,India,072329 80517,NA
Paint shop,"Paint shop, 694 beharipur civel lines, near city railway station, Uttar Pradesh 243001",Bareilly,Uttar Pradesh,India,NA,NA
Shivay Traders,"Shivay Traders, Bareilly - Badaun Rd, Patel Bihar Colony, subhash nagar colony, Bareilly, Uttar Pradesh 243001",Bareilly,Uttar Pradesh,India,089587 30438,NA
Shri Hariprabha Enterprises,"Shri Hariprabha Enterprises, Ravinder Nagar Colony, Bareilly, Uttar Pradesh 243001",Bareilly,Uttar Pradesh,India,NA,NA
Shivay Traders,"Shivay Traders, Shiv Mandir, Dohra, Lalpur Road, Suresh Sharma Nagar, Bareilly, Uttar Pradesh 243006",Bareilly,Uttar Pradesh,India,089587 30438,NA
Sri Ram Enterprises,"Sri Ram Enterprises, Sri Balaji Temple, Budaun Road, Bareilly, Uttar Pradesh 243001",Bareilly,Uttar Pradesh,India,097195 89416,NA
Ahaan paint store,"Ahaan paint store, Gulab Nagar, Bareilly, Uttar Pradesh 243003",Bareilly,Uttar Pradesh,India,NA,NA
SHINRAI ENTERPRISES,"SHINRAI ENTERPRISES, Civil Lines, Bareilly, Uttar Pradesh 243001",Bareilly,Uttar Pradesh,India,081940 21801,NA
M/s. Kumar Traders,"M/s. Kumar Traders, Nainital Rd, opposite M.B. Inter College, Janakpuri, Bareilly, Uttar Pradesh 243001",Bareilly,Uttar Pradesh,India,098379 08952,NA
Singh paint store," Mini Bypass, Karamchari Nagar, Bareilly, Uttar Pradesh 243122",Bareilly,Uttar Pradesh,India,NA,NA
R A Agencies,"R A Agencies, Rp Enclave pbt bye pass road, opposite Mannat Lawn, Uttar Pradesh",Bareilly,Uttar Pradesh,India,093591 01301,NA
Sri Ram Pipe and Sanitary Store,"Sri Ram Pipe and Sanitary Store, near Gorakhnath Temple, Dayanand Nagar, Gorakhpur, Uttar Pradesh 273015",Gorakhpur,Uttar Pradesh,India,094528 47593,NA
Yash Hadware And Paints,"Yash Hadware And Paints, Maruthi Complex, Tara Mandal Road, Gorakhpur, Uttar Pradesh 273001",Gorakhpur,Uttar Pradesh,India,094158 56923,NA
P Madhusudan Chemicals India,"P Madhusudan Chemicals India, Charfatak, Mohaddipur, Gorakhpur, Uttar Pradesh 273001",Gorakhpur,Uttar Pradesh,India,094150 82923,NA
Baba paints,"Baba paints, Kachery Rd, near Vishal Mega Mart, Bashratpur, Gorakhpur, Uttar Pradesh 273001",Gorakhpur,Uttar Pradesh,India,NA,NA
Sri Paint & Hardware Machinery Store,"Sri Paint & Hardware Machinery Store, Moharipur bazar, Sonali Road, Gorakhpur, Uttar Pradesh 273001",Gorakhpur,Uttar Pradesh,India,092353 03115,NA
Bharat trading company,"Bharat trading company, Turakmanpur, TP Nagar, Basantpur, Gorakhpur, Uttar Pradesh 273001",Gorakhpur,Uttar Pradesh,India,NA,NA
Pathak Hardware & Paints,"Pathak Hardware & Paints, Tara Mandal Road, Bhagat Chowraha, Gorakhapur, Uttar Pradesh 273010",Gorakhpur,Uttar Pradesh,India,072218 60633,NA
MaaAmbey TradersPaints&Hardwearetc,"MaaAmbey TradersPaints&Hardwearetc, LIG2593FCIRoadVikasnagarVista, Gorakhpur, Uttar Pradesh 273007",Gorakhpur,Uttar Pradesh,India,NA,NA
A S ENTERPRISES,"A S ENTERPRISES, MAIN ROAD,SHOP.NO.2, SEC.70, near Bhagwati Garden, Banquet Hall (Weddingz.in Partner), Noida, Uttar Pradesh 201301",Noida,Uttar Pradesh,India,098997 83737,https://www.as-enterprises.com
Colors India,"Colors India, Plot No.CS-7, Shop No.3, Gyan Sagar RWA Ln, Gyan Khand II, Indirapuram, Ghaziabad, Uttar Pradesh 201014",Noida,Uttar Pradesh,India,092788 16417,NA
Furkan Painter,"Furkan Painter, Jamia Nagar,Abul Fazi Enclave, Shaheen Bagh, Jasola Vihar, New Delhi, Delhi 110020",Noida,Uttar Pradesh,India,095407 19751,NA
Shree Ram Paint & Hardware,"Shree Ram Paint & Hardware, 107, Kala Pathar Rd, Gyan Khand II, Indirapuram, Ghaziabad, Uttar Pradesh 201014",Noida,Uttar Pradesh,India,092121 57816,NA
Jagdamba Paints and Hardware,"Jagdamba Paints and Hardware, Sector 5, Vaishali, Ghaziabad, Uttar Pradesh 201012",Noida,Uttar Pradesh,India,NA,NA
Yash Paint Store,"Yash Paint Store, Shop No. 15, Kaling Marg, Sector 5, Vaishali, Ghaziabad, Uttar Pradesh 201010",Noida,Uttar Pradesh,India,098189 58191,NA
R K General And Paint Store,"Shop No: 418, R K General And Paint Store, 5, Kaling Marg, GDA Market, Sector 5, Vaishali, Ghaziabad, Uttar Pradesh 201010",Noida,Uttar Pradesh,India,093113 66899,NA
Paras Paints & Hardware,"Paras Paints & Hardware, Shop No-2,Central Market Extension ,Brij Vihar Chowk ,Rampuri, Ghaziabad, Uttar Pradesh 201011",Noida,Uttar Pradesh,India,099105 18666,NA
balaji paints,"balaji paints, 16/180/1-2, Maharaja Agarsain Marg, Pocket B, Sector 16, Vasundhara, Ghaziabad, Uttar Pradesh 201012",Noida,Uttar Pradesh,India,NA,NA
Balaji Paints,"Shop No, Balaji Paints, 901, Kaling Marg, GDA Market, Sector 5, Vaishali, Ghaziabad, Uttar Pradesh 201010",Noida,Uttar Pradesh,India,098914 69639,NA
M/S Arun Paints,"M/S Arun Paints, Haridwar Bypass Road, Haridwar Rd, Dehradun, Uttarakhand 248001",Dehradun,Uttarakhand,India,097590 75846,NA
M. K. Enterprises,"M. K. Enterprises, Haridwar Bypass Road, Haridwar Rd, Ajabpur Kalan, Dehradun, Uttarakhand 248001",Dehradun,Uttarakhand,India,099177 52698,NA
Bhatt Paints,"Bhatt Paints, Johri, Malsi, Dehradun, Uttarakhand 248014",Dehradun,Uttarakhand,India,NA,NA
Sahib Paints,"Sahib Paints, Saharanpur Rd, Patel Nagar, Dehradun, Uttarakhand 248001",Dehradun,Uttarakhand,India,099973 73777,NA
M/s. B.S. Thapa,"M/s. B.S. Thapa, Birpur Rd, Garhi Cantonment, Garhi Cantt, Dehradun, Uttarakhand 248001",Dehradun,Uttarakhand,India,097192 66039,NA
M/S Vijay Kumar Sharma- Sheenlac Paints,"M/S Vijay Kumar Sharma- Sheenlac Paints, 93, Chakrata Road, Tilak Rd, Paltan Bazaar, Dehradun, Uttarakhand 248001",Dehradun,Uttarakhand,India,097595 76830,NA
Krishna COLORS FOR LIFE,"Krishna COLORS FOR LIFE, Chakarata Rd, Jhajra, Uttarakhand 248007",Dehradun,Uttarakhand,India,NA,NA
Sudhir Paint Mart,"43, Sudhir Paint Mart, Old, Dispensary Rd, Harrawala, Dehradun, Uttarakhand 248001",Dehradun,Uttarakhand,India,0135 265 5976,NA
Umar hardware,"Umar hardware, 1275, Indra Nagar Colony, Dehradun, Uttarakhand 248001",Dehradun,Uttarakhand,India,NA,https://umar-hardware.business.site
Bhatia Sons,"Bhatia Sons, General Mahadev Singh Rd, Behind Hotel Kamala Palace, Shakti Enclave, Kaonli, Dehradun, Uttarakhand 248001",Dehradun,Uttarakhand,India,098972 73041,NA
Rawat Paints & Hardware Store,"Rawat Paints & Hardware Store, 244715, Chandrapur Tiwari, Gangapur Pahari, Uttarakhand 244715",Rāmnagar,Uttarakhand,India,NA,NA
Angel Paint,"Angel Paint, Rajeshwar Nagar Phase-I, Aman Vihar, Dehradun, Uttarakhand 248001",Rāipur,Uttarakhand,India,097608 03835,NA
Shree Sai Ram Enterprises,"Shree Sai Ram Enterprises, Tapovan Ashram Rd, Ladpur, Dehradun, Uttarakhand 248008",Rāipur,Uttarakhand,India,NA,NA
Raj Hardware And Paints,"Raj Hardware And Paints, Tapowan Rd, Friends Colony, Nalapani, Ladpur, Dehradun, Uttarakhand 248001",Rāipur,Uttarakhand,India,099276 74509,NA
Shahi associate,"Shahi associate, Gali No-7, House No-2, 20 Bigha, Bapu Gram, Rishikesh, Uttarakhand 249202",Birbhaddar,Uttarakhand,India,NA,NA
S.S.TRADERS,"S.S.TRADERS, Chini Godam Rd, Gumaniwala, Rishikesh, Uttarakhand 249202",Birbhaddar,Uttarakhand,India,NA,NA
Gaurav paints and decorators,"Gaurav paints and decorators, NH34, Geeta Nagar Colony, Rishikesh, Uttarakhand 249204",Birbhaddar,Uttarakhand,India,NA,NA
RANA ENTERPRISES,"RANA ENTERPRISES, MALVIYA NAGAR NEAR DURGA MANDIR ST NO-05, Rishikesh, Uttarakhand 249203",Birbhaddar,Uttarakhand,India,NA,NA
Nu Unique Sales Agencies,"Nu Unique Sales Agencies, 18/5 Raja Rammohan Roy Road Behala Chowrasta &James Long Sarani crossing, Kolkata, West Bengal 700008",Santoshpur,West Bengal,India,NA,NA
Dawn Paint House,"Dawn Paint House, James Long Sarani, Jagadish Para, Nutan Pally, Purba Barisha, Kolkata, West Bengal 700008",Santoshpur,West Bengal,India,NA,NA
South Calcutta Paints,"Shop No. 81/1, South Calcutta Paints, M.G. Rd, Tollygunge Karunamoyee, Tollygunge, Kolkata, West Bengal 700082",Santoshpur,West Bengal,India,090515 82339,NA
Bristi Colour Bank,"Bristi Colour Bank, 83, Charulatha Building, James Long Sarani, Gour Nagar, Thakurpukur, Kolkata, West Bengal 700063",Santoshpur,West Bengal,India,078908 57198,NA
Allied Resins and Chemical Limited,"Allied Resins and Chemical Limited, Paharpur, Garden Reach, Kolkata, West Bengal 700088",Santoshpur,West Bengal,India,NA,NA
Adak Enterprise,"Adak Enterprise, 135/4, B. G. Press, Behala, Kolkata, West Bengal 700060",Santoshpur,West Bengal,India,098747 74269,https://business.google.com
Biswas Paints,"Biswas Paints, 700063 774, Diamond Harbour Rd, Bata Colony, Paschim Barisha, Kolkata, West Bengal 700063",Santoshpur,West Bengal,India,NA,NA
Das Service,"Das Service, Shop No. 23, SN Roy Rd, Sahapur, New Alipore, Kolkata, West Bengal 700038",Santoshpur,West Bengal,India,NA,http://www.daskolkata.org
Elga Paints And Polymers,"Elga Paints And Polymers, 30d, D H Road, Parnashree, D H Road, Kolkata, West Bengal 700060",Santoshpur,West Bengal,India,033 2406 2431,NA
New south prints,"New south prints, 277, M.G. Rd, Arobindo Pally, Paschim Putiary, Kolkata, West Bengal 700104",Santoshpur,West Bengal,India,NA,NA
The Colour House,"The Colour House, 52/1A, Raja Ram Mohan Sarani, College Row, Machuabazar, Kolkata, West Bengal 700009",Kolkata,West Bengal,India,094330 46854,NA
Gita Paints and Hardwares ," Pottery Rd, Seal Lane, Tangra, Kolkata, West Bengal 700015",Kolkata,West Bengal,India,NA,NA
Sonu Paints,"Sonu Paints, 40, Park Street, Rafi Ahmed Kidwai Rd, Taltala, Kolkata, West Bengal 700016",Kolkata,West Bengal,India,NA,NA
Indo Paints,"No:37, Indo Paints, Muzaffar Ahmed St, Esplanade, Taltala, Kolkata, West Bengal 700016",Kolkata,West Bengal,India,033 2229 2656,NA
New Maa Manasha Paints,"New Maa Manasha Paints, 5/23, Rajendra Prasad Colony, Tollygunge, Kolkata, West Bengal 700045",Kolkata,West Bengal,India,092316 39272,NA
Laxmi Hardware Stores & Paints,"Laxmi Hardware Stores & Paints, 152, Dr G S Bose Rd, Kata Pukur, Kasba, Kolkata, West Bengal 700839",Kolkata,West Bengal,India,098317 10071,http://laxmi-hardware-stores-paints.business.site
Hossain Paints Supply,"29, 44C, Hossain Paints Supply, 29, Samsul Huda Rd, Park Circus, Ballygunge, Kolkata, West Bengal 700017",Kolkata,West Bengal,India,097488 09322,NA
Premium Paints,"Premium Paints, 32, Jhowtalla Road, Circus Avenue, Fazio hq Sarani, Park Circus, Ballygunge, Kolkata, West Bengal 700017",Kolkata,West Bengal,India,098301 60363,NA
Haque Paints,"Haque Paints, Ground, 85, Fazlul Haque Sarani, Kolkata, West Bengal 700017",Kolkata,West Bengal,India,NA,NA
Dey's Hardware Stores,"61, Dey's Hardware Stores, 1, Bondel Rd, Ballygunge Place, Ballygunge, Kolkata, West Bengal 700019",Kolkata,West Bengal,India,092314 39781,NA
De Enterprise & paints,"De Enterprise & paints, Ugardahs, Baruipara, West Bengal 712306",Rāmnagar,West Bengal,India,NA,NA
"Mahanad Rangmahal Asian ,Berger and ICI Paints.","Mahanad Rangmahal Asian ,Berger and ICI Paints., Pandua - Bandel Rd, Mahanad, West Bengal 712148",Kesabpur,West Bengal,India,094741 28238,NA
SHRI HARI RANG MOHAL,"SHRI HARI RANG MOHAL, Bora Hawakhana Ground, Rd Number 31, Nizampur, Bara Kamalapur, West Bengal 712306",Rāmnagar,West Bengal,India,NA,NA
Gobindapur Paints And Heardwere,"Gobindapur Paints And Heardwere, Diara, Kolkata, West Bengal 712223",Rāmnagar,West Bengal,India,NA,https://gobindapur-paints-and-heardwere.business.site
Barada Paint House,"Barada Paint House, Samabaypalli Saheb bagan bally howrah, Kolkata, West Bengal 711205",Bali,West Bengal,India,NA,NA
Berger and asian paints,"Berger and asian paints, 405, Grand Trunk Rd, Bally, Howrah, West Bengal 711201",Bali,West Bengal,India,NA,NA
Paint Shop,"Paint Shop, 711227, Industrial Housing Estate, Sapuipara, Ghosh Para, Howrah, West Bengal 711227",Bali,West Bengal,India,NA,NA
Prabir Colour Palace,"Prabir Colour Palace, Rd Number 31, Bara, Kamalapur, Bara Kamalapur, West Bengal 712306",Rāmnagar,West Bengal,India,NA,NA
Sri Hari Rang Mahal,"Sri Hari Rang Mahal, Nr. Boro Baba Mandir, Bara Kamalapur, West Bengal 712306",Rāmnagar,West Bengal,India,NA,NA
Ravinder Traders,"Ravinder Traders, Plot No.153A ,Sector 42B, Jan Marg, Sector 42, Chandigarh, 160036",Chandigarh,Chandigarh,India,0172 261 2619,NA
Ply Home,"Ply Home, S.C.O. 315, Sector 38-D, Chandigarh, 160036",Chandigarh,Chandigarh,India,0172 500 5440,NA
Gulzar Paints,"Gulzar Paints, SCF 10, Sector 18-C, Sector 18, Chandigarh, 160018",Chandigarh,Chandigarh,India,0172 508 7903,NA
Suzuki Paints,"Suzuki Paints, Shop No. 1809, opposite Dev Samaj College, Burail, Sector 45-B, Chandigarh, 160047",Chandigarh,Chandigarh,India,092166 21009,NA
Naresh Enterprises,"Shop no. 134, Naresh Enterprises, Sector 41D, Badheri, Sector 41, Chandigarh, 160036",Chandigarh,Chandigarh,India,098884 08060,NA
Ganga Painting Works,"Ganga Painting Works, ganga printing, 23 SC-28, Chandigarh, 160028",Chandigarh,Chandigarh,India,098144 05823,NA
R S Enterprises,"R S Enterprises, 89, Press Area, Industrial Area Phase-1, Chandigarh, 160002",Chandigarh,Chandigarh,India,0172 265 2330,NA
KARNAL PAINTS & HARDWARE,"KARNAL PAINTS & HARDWARE, Booth No.35 , R1 , CML1, opp. The City Club, New Chandigarh, Punjab 140901",Chandigarh,Chandigarh,India,NA,NA
Gupta Interiors| Wallpaper store| Texture Paint | imported Wallpaper Shop,"Gupta Interiors| Wallpaper store| Texture Paint | imported Wallpaper Shop, Shop No:- 232/11,Oberoi Banquet, Sector:- 45-B, Chandigarh 160047",Chandigarh,Chandigarh,India,098767 66685,https://guptainteriorswallpaper.business.site
SHIV SHAKTI ENTERPRISES(ASIAN PAINTS),"SHIV SHAKTI ENTERPRISES(ASIAN PAINTS), Booth no 54 DLF R1 (DLF HYDE PARK, New Chandigarh, Punjab 140901",Chandigarh,Chandigarh,India,NA,NA
